ServicePointID,StreetAddress,City,State,Zip,Latitude,Longitude,CommodityType,Unit,DemandUnitID,NominalVoltage,PhaseCount,TimeZone,TransformerID,MeterID,MeterNumber,DeviceId,Start,End
_ESRVP000001,,BeVille,FL,,29.66358864,-82.4131532,Electric,WH,W,,1,EasternUSNoDst,_Test_Transformer1,90000001,90000001,2.16.840.1.114416.0.90000001,BOT,EOT
_ESRVP000002,,BeVille,FL,,29.66186278,-82.41542724,Electric,WH,W,,1,EasternUSNoDst,_Test_Transformer2,90000002,90000002,2.16.840.1.114416.0.90000002,BOT,EOT
_ESRVP000003,,BeVille,FL,,29.66107194,-82.41467744,Electric,WH,W,,1,EasternUSNoDst,_Test_Transformer2,90000003,90000003,2.16.840.1.114416.0.90000003,BOT,EOT
_ESRVP000004,,BeVille,FL,,29.66264882,-82.41297241,Electric,WH,W,,1,EasternUSNoDst,_Test_Transformer2,90000004,90000004,2.16.840.1.114416.0.90000004,BOT,EOT
_ESRVP151442,,WestHills,FL,,29.66659498,-82.41939677,Electric,WH,W,,1,EasternUSNoDst,_XFR8667,90151442,90151442,2.16.840.1.114416.0.90151442,BOT,EOT
_ESRVP151443,,WestHills,FL,,29.666276,-82.42271385,Electric,WH,W,,1,EasternUSNoDst,_XFR8688,90151443,90151443,2.16.840.1.114416.0.90151443,BOT,EOT
_ESRVP151444,,WestHills,FL,,29.66581829,-82.41317302,Electric,WH,W,,1,EasternUSNoDst,_XFR8669,90151444,90151444,2.16.840.1.114416.0.90151444,BOT,EOT
_ESRVP171966,,WestHills,FL,,29.65980814,-82.412174,Electric,WH,W,,1,EasternUSNoDst,_XFR11197,90171966,90171966,2.16.840.1.114416.0.90171966,BOT,EOT
_ESRVP197842,,WestHills,FL,,29.66815322,-82.41661903,Electric,WH,W,,1,EasternUSNoDst,_XFR8643,90197842,90197842,2.16.840.1.114416.0.90197842,BOT,EOT
_ESRVP29051,,WestHills,FL,,29.6667084,-82.41154197,Electric,WH,W,,1,EasternUSNoDst,_XFR8345,9029051,9029051,2.16.840.1.114416.0.9029051,BOT,EOT
_ESRVP29052,,WestHills,FL,,29.66656522,-82.41176356,Electric,WH,W,,1,EasternUSNoDst,_XFR8345,9029052,9029052,2.16.840.1.114416.0.9029052,BOT,EOT
_ESRVP29053,,WestHills,FL,,29.66707142,-82.41104398,Electric,WH,W,,1,EasternUSNoDst,_XFR8344,9029053,9029053,2.16.840.1.114416.0.9029053,BOT,EOT
_ESRVP29788,,WestHills,FL,,29.66770512,-82.41212514,Electric,WH,W,,1,EasternUSNoDst,_XFR8637,9029788,9029788,2.16.840.1.114416.0.9029788,BOT,EOT
_ESRVP29789,,WestHills,FL,,29.66820202,-82.41205834,Electric,WH,W,,1,EasternUSNoDst,_XFR8639,9029789,9029789,2.16.840.1.114416.0.9029789,BOT,EOT
_ESRVP29790,,WestHills,FL,,29.66891894,-82.41211272,Electric,WH,W,,1,EasternUSNoDst,_XFR8638,9029790,9029790,2.16.840.1.114416.0.9029790,BOT,EOT
_ESRVP29791,,WestHills,FL,,29.66717878,-82.41214194,Electric,WH,W,,1,EasternUSNoDst,_XFR8345,9029791,9029791,2.16.840.1.114416.0.9029791,BOT,EOT
_ESRVP29799,,WestHills,FL,,29.6705729,-82.42067213,Electric,WH,W,,1,EasternUSNoDst,_XFR8634,9029799,9029799,2.16.840.1.114416.0.9029799,BOT,EOT
_ESRVP29879,,WestHills,FL,,29.67083086,-82.42343296,Electric,WH,W,,1,EasternUSNoDst,_XFR95150,9029879,9029879,2.16.840.1.114416.0.9029879,BOT,EOT
_ESRVP29880,,WestHills,FL,,29.67063582,-82.42309773,Electric,WH,W,,1,EasternUSNoDst,_XFR95150,9029880,9029880,2.16.840.1.114416.0.9029880,BOT,EOT
_ESRVP29890,,WestHills,FL,,29.67005409,-82.42316501,Electric,WH,W,,1,EasternUSNoDst,_XFR8632,9029890,9029890,2.16.840.1.114416.0.9029890,BOT,EOT
_ESRVP29891,,WestHills,FL,,29.67022604,-82.42138517,Electric,WH,W,,1,EasternUSNoDst,_XFR8635,9029891,9029891,2.16.840.1.114416.0.9029891,BOT,EOT
_ESRVP29892,,WestHills,FL,,29.67027194,-82.4189927,Electric,WH,W,,1,EasternUSNoDst,_XFR93230,9029892,9029892,2.16.840.1.114416.0.9029892,BOT,EOT
_ESRVP29893,,WestHills,FL,,29.6676553,-82.4171301,Electric,WH,W,,1,EasternUSNoDst,_XFR8652,9029893,9029893,2.16.840.1.114416.0.9029893,BOT,EOT
_ESRVP29894,,WestHills,FL,,29.6677452,-82.41735221,Electric,WH,W,,1,EasternUSNoDst,_XFR8652,9029894,9029894,2.16.840.1.114416.0.9029894,BOT,EOT
_ESRVP29895,,WestHills,FL,,29.66946461,-82.41760963,Electric,WH,W,,1,EasternUSNoDst,_XFR8645,9029895,9029895,2.16.840.1.114416.0.9029895,BOT,EOT
_ESRVP29896,,WestHills,FL,,29.66940993,-82.4203472,Electric,WH,W,,1,EasternUSNoDst,_XFR8649,9029896,9029896,2.16.840.1.114416.0.9029896,BOT,EOT
_ESRVP29897,,WestHills,FL,,29.66924355,-82.42133561,Electric,WH,W,,1,EasternUSNoDst,_XFR8649,9029897,9029897,2.16.840.1.114416.0.9029897,BOT,9/26/2024 0:00
_ESRVP29897,,WestHills,FL,,29.66924355,-82.42133561,Electric,WH,W,,1,EasternUSNoDst,_XFR8658,9029897,9029897,2.16.840.1.114416.0.9029897,9/26/2024 0:00,EOT
_ESRVP29898,,WestHills,FL,,29.66931487,-82.42178483,Electric,WH,W,,1,EasternUSNoDst,_XFR8658,9029898,9029898,2.16.840.1.114416.0.9029898,BOT,EOT
_ESRVP29899,,WestHills,FL,,29.66797264,-82.42295665,Electric,WH,W,,1,EasternUSNoDst,_XFR8636,9029899,9029899,2.16.840.1.114416.0.9029899,BOT,EOT
_ESRVP29900,,WestHills,FL,,29.66733056,-82.42308399,Electric,WH,W,,1,EasternUSNoDst,_XFR8636,9029900,9029900,2.16.840.1.114416.0.9029900,BOT,EOT
_ESRVP29901,,WestHills,FL,,29.66816082,-82.42203976,Electric,WH,W,,1,EasternUSNoDst,_XFR8659,9029901,9029901,2.16.840.1.114416.0.9029901,BOT,EOT
_ESRVP29902,,WestHills,FL,,29.66811671,-82.42140064,Electric,WH,W,,1,EasternUSNoDst,_XFR8658,9029902,9029902,2.16.840.1.114416.0.9029902,BOT,EOT
_ESRVP29903,,WestHills,FL,,29.66819604,-82.42025304,Electric,WH,W,,1,EasternUSNoDst,_XFR8656,9029903,9029903,2.16.840.1.114416.0.9029903,BOT,EOT
_ESRVP29904,,WestHills,FL,,29.66819923,-82.41985448,Electric,WH,W,,1,EasternUSNoDst,_XFR8656,9029904,9029904,2.16.840.1.114416.0.9029904,BOT,EOT
_ESRVP29905,,WestHills,FL,,29.66792154,-82.41899887,Electric,WH,W,,1,EasternUSNoDst,_XFR8655,9029905,9029905,2.16.840.1.114416.0.9029905,BOT,EOT
_ESRVP29906,,WestHills,FL,,29.66851395,-82.41824562,Electric,WH,W,,1,EasternUSNoDst,_XFR8642,9029906,9029906,2.16.840.1.114416.0.9029906,BOT,EOT
_ESRVP29907,,WestHills,FL,,29.66772105,-82.41829343,Electric,WH,W,,1,EasternUSNoDst,_XFR8652,9029907,9029907,2.16.840.1.114416.0.9029907,BOT,EOT
_ESRVP29908,,WestHills,FL,,29.66711938,-82.41807984,Electric,WH,W,,1,EasternUSNoDst,_XFR8651,9029908,9029908,2.16.840.1.114416.0.9029908,BOT,EOT
_ESRVP29909,,WestHills,FL,,29.66610496,-82.41836995,Electric,WH,W,,1,EasternUSNoDst,_XFR8666,9029909,9029909,2.16.840.1.114416.0.9029909,BOT,EOT
_ESRVP29910,,WestHills,FL,,29.6663234,-82.41973002,Electric,WH,W,,1,EasternUSNoDst,_XFR8667,9029910,9029910,2.16.840.1.114416.0.9029910,BOT,EOT
_ESRVP29911,,WestHills,FL,,29.66885195,-82.41407064,Electric,WH,W,,1,EasternUSNoDst,_XFR8650,9029911,9029911,2.16.840.1.114416.0.9029911,BOT,EOT
_ESRVP29912,,WestHills,FL,,29.66853392,-82.41703012,Electric,WH,W,,1,EasternUSNoDst,_XFR8643,9029912,9029912,2.16.840.1.114416.0.9029912,BOT,EOT
_ESRVP29913,,WestHills,FL,,29.66839285,-82.41710056,Electric,WH,W,,1,EasternUSNoDst,_XFR8643,9029913,9029913,2.16.840.1.114416.0.9029913,BOT,EOT
_ESRVP29914,,WestHills,FL,,29.66688161,-82.41701717,Electric,WH,W,,1,EasternUSNoDst,_XFR8663,9029914,9029914,2.16.840.1.114416.0.9029914,BOT,EOT
_ESRVP29915,,WestHills,FL,,29.66734975,-82.41708897,Electric,WH,W,,1,EasternUSNoDst,_XFR8668,9029915,9029915,2.16.840.1.114416.0.9029915,BOT,EOT
_ESRVP29916,,WestHills,FL,,29.66819867,-82.4128755,Electric,WH,W,,1,EasternUSNoDst,_XFR8639,9029916,9029916,2.16.840.1.114416.0.9029916,BOT,EOT
_ESRVP29917,,WestHills,FL,,29.66847494,-82.4139692,Electric,WH,W,,1,EasternUSNoDst,_XFR8650,9029917,9029917,2.16.840.1.114416.0.9029917,BOT,EOT
_ESRVP29918,,WestHills,FL,,29.66729781,-82.41402586,Electric,WH,W,,1,EasternUSNoDst,_XFR8641,9029918,9029918,2.16.840.1.114416.0.9029918,BOT,EOT
_ESRVP29919,,WestHills,FL,,29.66746398,-82.41395146,Electric,WH,W,,1,EasternUSNoDst,_XFR8641,9029919,9029919,2.16.840.1.114416.0.9029919,BOT,EOT
_ESRVP29920,,WestHills,FL,,29.66755709,-82.41306986,Electric,WH,W,,1,EasternUSNoDst,_XFR8657,9029920,9029920,2.16.840.1.114416.0.9029920,BOT,EOT
_ESRVP29921,,WestHills,FL,,29.66585229,-82.41405001,Electric,WH,W,,1,EasternUSNoDst,_XFR8660,9029921,9029921,2.16.840.1.114416.0.9029921,BOT,EOT
_ESRVP29922,,WestHills,FL,,29.66626005,-82.41389979,Electric,WH,W,,1,EasternUSNoDst,_XFR8660,9029922,9029922,2.16.840.1.114416.0.9029922,BOT,EOT
_ESRVP29923,,WestHills,FL,,29.66654365,-82.41396813,Electric,WH,W,,1,EasternUSNoDst,_XFR8662,9029923,9029923,2.16.840.1.114416.0.9029923,BOT,EOT
_ESRVP29924,,WestHills,FL,,29.66739205,-82.41498746,Electric,WH,W,,1,EasternUSNoDst,_XFR8640,9029924,9029924,2.16.840.1.114416.0.9029924,BOT,9/26/2024 0:00
_ESRVP29924,,WestHills,FL,,29.66739205,-82.41498746,Electric,WH,W,,1,EasternUSNoDst,_XFR8641,9029924,9029924,2.16.840.1.114416.0.9029924,9/26/2024 0:00,EOT
_ESRVP29925,,WestHills,FL,,29.66717112,-82.41481656,Electric,WH,W,,1,EasternUSNoDst,_XFR8641,9029925,9029925,2.16.840.1.114416.0.9029925,BOT,EOT
_ESRVP29926,,WestHills,FL,,29.66678858,-82.41487306,Electric,WH,W,,1,EasternUSNoDst,_XFR8664,9029926,9029926,2.16.840.1.114416.0.9029926,BOT,EOT
_ESRVP29927,,WestHills,FL,,29.66630409,-82.414828,Electric,WH,W,,1,EasternUSNoDst,_XFR8662,9029927,9029927,2.16.840.1.114416.0.9029927,BOT,EOT
_ESRVP29928,,WestHills,FL,,29.66588411,-82.4154294,Electric,WH,W,,1,EasternUSNoDst,_XFR8665,9029928,9029928,2.16.840.1.114416.0.9029928,BOT,EOT
_ESRVP29929,,WestHills,FL,,29.66631617,-82.41596322,Electric,WH,W,,1,EasternUSNoDst,_XFR8661,9029929,9029929,2.16.840.1.114416.0.9029929,BOT,EOT
_ESRVP29930,,WestHills,FL,,29.66681905,-82.41593871,Electric,WH,W,,1,EasternUSNoDst,_XFR8663,9029930,9029930,2.16.840.1.114416.0.9029930,BOT,EOT
_ESRVP29931,,WestHills,FL,,29.66726461,-82.41595382,Electric,WH,W,,1,EasternUSNoDst,_XFR8668,9029931,9029931,2.16.840.1.114416.0.9029931,BOT,EOT
_ESRVP29932,,WestHills,FL,,29.66770425,-82.41579289,Electric,WH,W,,1,EasternUSNoDst,_XFR133309,9029932,9029932,2.16.840.1.114416.0.9029932,BOT,EOT
_ESRVP29933,,WestHills,FL,,29.66797268,-82.41579159,Electric,WH,W,,1,EasternUSNoDst,_XFR133309,9029933,9029933,2.16.840.1.114416.0.9029933,BOT,EOT
_ESRVP29934,,WestHills,FL,,29.66859039,-82.41572786,Electric,WH,W,,1,EasternUSNoDst,_XFR8646,9029934,9029934,2.16.840.1.114416.0.9029934,BOT,EOT
_ESRVP29935,,WestHills,FL,,29.66877988,-82.41576263,Electric,WH,W,,1,EasternUSNoDst,_XFR8646,9029935,9029935,2.16.840.1.114416.0.9029935,BOT,EOT
_ESRVP29936,,WestHills,FL,,29.66849595,-82.41472935,Electric,WH,W,,1,EasternUSNoDst,_XFR8650,9029936,9029936,2.16.840.1.114416.0.9029936,BOT,EOT
_ESRVP29937,,WestHills,FL,,29.66790007,-82.41495828,Electric,WH,W,,1,EasternUSNoDst,_XFR8640,9029937,9029937,2.16.840.1.114416.0.9029937,BOT,EOT
_ESRVP29938,,WestHills,FL,,29.66976702,-82.4149301,Electric,WH,W,,1,EasternUSNoDst,_XFR83921,9029938,9029938,2.16.840.1.114416.0.9029938,BOT,EOT
_ESRVP29939,,WestHills,FL,,29.66882819,-82.41643532,Electric,WH,W,,1,EasternUSNoDst,_XFR8654,9029939,9029939,2.16.840.1.114416.0.9029939,BOT,EOT
_ESRVP29940,,WestHills,FL,,29.6696705,-82.41642613,Electric,WH,W,,1,EasternUSNoDst,_XFR8644,9029940,9029940,2.16.840.1.114416.0.9029940,BOT,EOT
_ESRVP29941,,WestHills,FL,,29.66971582,-82.41554228,Electric,WH,W,,1,EasternUSNoDst,_XFR83921,9029941,9029941,2.16.840.1.114416.0.9029941,BOT,EOT
_ESRVP29942,,WestHills,FL,,29.66885127,-82.42241808,Electric,WH,W,,1,EasternUSNoDst,_XFR8658,9029942,9029942,2.16.840.1.114416.0.9029942,BOT,EOT
_ESRVP29943,,WestHills,FL,,29.66973722,-82.41599361,Electric,WH,W,,1,EasternUSNoDst,_XFR83921,9029943,9029943,2.16.840.1.114416.0.9029943,BOT,EOT
_ESRVP29945,,WestHills,FL,,29.66594894,-82.41276379,Electric,WH,W,,1,EasternUSNoDst,_XFR8669,9029945,9029945,2.16.840.1.114416.0.9029945,BOT,EOT
_ESRVP29946,,WestHills,FL,,29.66605494,-82.41256426,Electric,WH,W,,1,EasternUSNoDst,_XFR8669,9029946,9029946,2.16.840.1.114416.0.9029946,BOT,EOT
_ESRVP29947,,WestHills,FL,,29.66671274,-82.41300834,Electric,WH,W,,1,EasternUSNoDst,_XFR8657,9029947,9029947,2.16.840.1.114416.0.9029947,BOT,9/26/2024 0:00
_ESRVP29947,,WestHills,FL,,29.66671274,-82.41300834,Electric,WH,W,,1,EasternUSNoDst,_XFR8669,9029947,9029947,2.16.840.1.114416.0.9029947,9/26/2024 0:00,EOT
_ESRVP29951,,WestHills,FL,,29.66514255,-82.42065503,Electric,WH,W,,1,EasternUSNoDst,_XFR8674,9029951,9029951,2.16.840.1.114416.0.9029951,BOT,EOT
_ESRVP29952,,WestHills,FL,,29.66511762,-82.41912011,Electric,WH,W,,1,EasternUSNoDst,_XFR8673,9029952,9029952,2.16.840.1.114416.0.9029952,BOT,EOT
_ESRVP29953,,WestHills,FL,,29.66502444,-82.4185284,Electric,WH,W,,1,EasternUSNoDst,_XFR8675,9029953,9029953,2.16.840.1.114416.0.9029953,BOT,EOT
_ESRVP29957,,WestHills,FL,,29.66306082,-82.4185212,Electric,WH,W,,1,EasternUSNoDst,_XFR8677,9029957,9029957,2.16.840.1.114416.0.9029957,BOT,EOT
_ESRVP29958,,WestHills,FL,,29.66469935,-82.41929823,Electric,WH,W,,1,EasternUSNoDst,_XFR8673,9029958,9029958,2.16.840.1.114416.0.9029958,BOT,EOT
_ESRVP29963,,WestHills,FL,,29.66474412,-82.41825481,Electric,WH,W,,1,EasternUSNoDst,_XFR8675,9029963,9029963,2.16.840.1.114416.0.9029963,BOT,EOT
_ESRVP29964,,WestHills,FL,,29.66481369,-82.41802505,Electric,WH,W,,1,EasternUSNoDst,_XFR8675,9029964,9029964,2.16.840.1.114416.0.9029964,BOT,EOT
_ESRVP29966,,WestHills,FL,,29.66311203,-82.41726781,Electric,WH,W,,1,EasternUSNoDst,_XFR8681,9029966,9029966,2.16.840.1.114416.0.9029966,BOT,EOT
_ESRVP29967,,WestHills,FL,,29.66308207,-82.41726846,Electric,WH,W,,1,EasternUSNoDst,_XFR8681,9029967,9029967,2.16.840.1.114416.0.9029967,BOT,EOT
_ESRVP29968,,WestHills,FL,,29.66294135,-82.41727783,Electric,WH,W,,1,EasternUSNoDst,_XFR8681,9029968,9029968,2.16.840.1.114416.0.9029968,BOT,EOT
_ESRVP29974,,WestHills,FL,,29.66318862,-82.41804206,Electric,WH,W,,1,EasternUSNoDst,_XFR8677,9029974,9029974,2.16.840.1.114416.0.9029974,BOT,EOT
_ESRVP29975,,WestHills,FL,,29.66307748,-82.41852072,Electric,WH,W,,1,EasternUSNoDst,_XFR8677,9029975,9029975,2.16.840.1.114416.0.9029975,BOT,EOT
_ESRVP29976,,WestHills,FL,,29.66304276,-82.41852158,Electric,WH,W,,1,EasternUSNoDst,_XFR8677,9029976,9029976,2.16.840.1.114416.0.9029976,BOT,EOT
_ESRVP29981,,WestHills,FL,,29.66426678,-82.41635825,Electric,WH,W,,1,EasternUSNoDst,_XFR8684,9029981,9029981,2.16.840.1.114416.0.9029981,BOT,EOT
_ESRVP29983,,WestHills,FL,,29.66616496,-82.42090413,Electric,WH,W,,1,EasternUSNoDst,_XFR8686,9029983,9029983,2.16.840.1.114416.0.9029983,BOT,EOT
_ESRVP29985,,WestHills,FL,,29.66527842,-82.42090236,Electric,WH,W,,1,EasternUSNoDst,_XFR8674,9029985,9029985,2.16.840.1.114416.0.9029985,BOT,EOT
_ESRVP36461,,WestHills,FL,,29.65475247,-82.41215862,Electric,WH,W,,1,EasternUSNoDst,_XFR10965,9036461,9036461,2.16.840.1.114416.0.9036461,BOT,EOT
_ESRVP36462,,WestHills,FL,,29.65429512,-82.41215536,Electric,WH,W,,1,EasternUSNoDst,_XFR11248,9036462,9036462,2.16.840.1.114416.0.9036462,BOT,EOT
_ESRVP36869,,WestHills,FL,,29.65291215,-82.41214469,Electric,WH,W,,1,EasternUSNoDst,_XFR11625,9036869,9036869,2.16.840.1.114416.0.9036869,BOT,EOT
_ESRVP36870,,WestHills,FL,,29.65365348,-82.41215648,Electric,WH,W,,1,EasternUSNoDst,_XFR11626,9036870,9036870,2.16.840.1.114416.0.9036870,BOT,EOT
_ESRVP37341,,WestHills,FL,,29.65475061,-82.41254545,Electric,WH,W,,1,EasternUSNoDst,_XFR11247,9037341,9037341,2.16.840.1.114416.0.9037341,BOT,EOT
_ESRVP37342,,WestHills,FL,,29.65429913,-82.41246467,Electric,WH,W,,1,EasternUSNoDst,_XFR11248,9037342,9037342,2.16.840.1.114416.0.9037342,BOT,EOT
_ESRVP37343,,WestHills,FL,,29.65434231,-82.41266251,Electric,WH,W,,1,EasternUSNoDst,_XFR11249,9037343,9037343,2.16.840.1.114416.0.9037343,BOT,EOT
_ESRVP37344,,WestHills,FL,,29.654289,-82.41298077,Electric,WH,W,,1,EasternUSNoDst,_XFR11250,9037344,9037344,2.16.840.1.114416.0.9037344,BOT,EOT
_ESRVP37345,,WestHills,FL,,29.65478654,-82.41319421,Electric,WH,W,,1,EasternUSNoDst,_XFR167953,9037345,9037345,2.16.840.1.114416.0.9037345,BOT,EOT
_ESRVP37346,,WestHills,FL,,29.65462687,-82.41344278,Electric,WH,W,,1,EasternUSNoDst,_XFR167951,9037346,9037346,2.16.840.1.114416.0.9037346,BOT,EOT
_ESRVP37347,,WestHills,FL,,29.65431495,-82.41332674,Electric,WH,W,,1,EasternUSNoDst,_XFR11250,9037347,9037347,2.16.840.1.114416.0.9037347,BOT,EOT
_ESRVP37348,,WestHills,FL,,29.65464133,-82.41377819,Electric,WH,W,,1,EasternUSNoDst,_XFR167951,9037348,9037348,2.16.840.1.114416.0.9037348,BOT,EOT
_ESRVP37395,,WestHills,FL,,29.6606886,-82.41634721,Electric,WH,W,,1,EasternUSNoDst,_XFR11216,9037395,9037395,2.16.840.1.114416.0.9037395,BOT,EOT
_ESRVP37426,,WestHills,FL,,29.65498516,-82.41316085,Electric,WH,W,,1,EasternUSNoDst,_XFR167953,9037426,9037426,2.16.840.1.114416.0.9037426,BOT,EOT
_ESRVP37427,,WestHills,FL,,29.65512763,-82.41317656,Electric,WH,W,,1,EasternUSNoDst,_XFR167953,9037427,9037427,2.16.840.1.114416.0.9037427,BOT,EOT
_ESRVP37428,,WestHills,FL,,29.65498356,-82.41278991,Electric,WH,W,,1,EasternUSNoDst,_XFR11305,9037428,9037428,2.16.840.1.114416.0.9037428,BOT,EOT
_ESRVP37429,,WestHills,FL,,29.65530424,-82.41367807,Electric,WH,W,,1,EasternUSNoDst,_XFR11303,9037429,9037429,2.16.840.1.114416.0.9037429,BOT,EOT
_ESRVP37430,,WestHills,FL,,29.65534102,-82.41318801,Electric,WH,W,,1,EasternUSNoDst,_XFR167953,9037430,9037430,2.16.840.1.114416.0.9037430,BOT,EOT
_ESRVP37431,,WestHills,FL,,29.65533702,-82.41276449,Electric,WH,W,,1,EasternUSNoDst,_XFR11304,9037431,9037431,2.16.840.1.114416.0.9037431,BOT,EOT
_ESRVP37432,,WestHills,FL,,29.65507139,-82.41367705,Electric,WH,W,,1,EasternUSNoDst,_XFR11303,9037432,9037432,2.16.840.1.114416.0.9037432,BOT,EOT
_ESRVP37446,,WestHills,FL,,29.65909665,-82.41504217,Electric,WH,W,,1,EasternUSNoDst,_XFR11314,9037446,9037446,2.16.840.1.114416.0.9037446,BOT,EOT
_ESRVP37447,,WestHills,FL,,29.65936546,-82.41518842,Electric,WH,W,,1,EasternUSNoDst,_XFR11314,9037447,9037447,2.16.840.1.114416.0.9037447,BOT,EOT
_ESRVP38928,,WestHills,FL,,29.65296981,-82.41237141,Electric,WH,W,,1,EasternUSNoDst,_XFR11625,9038928,9038928,2.16.840.1.114416.0.9038928,BOT,EOT
_ESRVP38929,,WestHills,FL,,29.65318564,-82.41250105,Electric,WH,W,,1,EasternUSNoDst,_XFR11625,9038929,9038929,2.16.840.1.114416.0.9038929,BOT,EOT
_ESRVP38930,,WestHills,FL,,29.65344032,-82.41243101,Electric,WH,W,,1,EasternUSNoDst,_XFR11626,9038930,9038930,2.16.840.1.114416.0.9038930,BOT,EOT
_ESRVP38931,,WestHills,FL,,29.65364596,-82.41245693,Electric,WH,W,,1,EasternUSNoDst,_XFR11706,9038931,9038931,2.16.840.1.114416.0.9038931,BOT,EOT
_ESRVP38932,,WestHills,FL,,29.6535218,-82.41290801,Electric,WH,W,,1,EasternUSNoDst,_XFR167954,9038932,9038932,2.16.840.1.114416.0.9038932,BOT,EOT
_ESRVP39147,,WestHills,FL,,29.65381673,-82.41287325,Electric,WH,W,,1,EasternUSNoDst,_XFR167954,9039147,9039147,2.16.840.1.114416.0.9039147,BOT,EOT
_ESRVP76372,,WestHills,FL,,29.669507,-82.41893338,Electric,WH,W,,1,EasternUSNoDst,_XFR93230,9076372,9076372,2.16.840.1.114416.0.9076372,BOT,EOT
2x6 Board 1-1,8529 Six Forks Rd,Raleigh,NC,27615,35.895344,-78.650096,Electric,WH,W,,1,EasternUS,RaleighTSELab_2x6,EI0338108512,338108512,2.16.840.1.114416.34.338108512,BOT,EOT
2x6 Board 1-3,8529 Six Forks Rd,Raleigh,NC,27615,35.895344,-78.650096,Electric,WH,W,,1,EasternUS,RaleighTSELab_2x6,EI0338108493,338108493,2.16.840.1.114416.34.338108493,BOT,EOT
2x6 Board 1-4,8529 Six Forks Rd,Raleigh,NC,27615,35.895344,-78.650096,Electric,WH,W,,1,EasternUS,RaleighTSELab_2x6,EI0338108513,338108513,2.16.840.1.114416.34.338108513,BOT,EOT
2x6 Board 1-5,8529 Six Forks Rd,Raleigh,NC,27615,35.895344,-78.650096,Electric,WH,W,,1,EasternUS,RaleighTSELab_2x6,EI0338108510,338108510,2.16.840.1.114416.34.338108510,BOT,EOT
2x6 Board 1-6,8529 Six Forks Rd,Raleigh,NC,27615,35.895344,-78.650096,Electric,WH,W,,1,EasternUS,RaleighTSELab_2x6,EI0338108516,338108516,2.16.840.1.114416.34.338108516,BOT,EOT
4x4 Board 1-1,8529 Six Forks Rd,Raleigh,NC,27615,35.895344,-78.650096,Electric,WH,W,,1,EasternUS,RaleighTSELab_4X4_Row1,EI0340771552,340771552,2.16.840.1.114416.34.340771552,BOT,EOT
4x4 Board 1-2,8529 Six Forks Rd,Raleigh,NC,27615,35.895344,-78.650096,Electric,WH,W,,1,EasternUS,RaleighTSELab_4X4_Row1,EI0346278174,346278174,2.16.840.1.114416.34.346278174,BOT,EOT
4x4 Board 2-1,8529 Six Forks Rd,Raleigh,NC,27615,35.895344,-78.650096,Electric,WH,W,,1,EasternUS,RaleighTSELab_4X4_Row2,EI0338108496,338108496,2.16.840.1.114416.34.338108496,BOT,EOT
4x4 Board 2-2,8529 Six Forks Rd,Raleigh,NC,27615,35.895344,-78.650096,Electric,WH,W,,1,EasternUS,RaleighTSELab_4X4_Row2,EI0340750905,340750905,2.16.840.1.114416.34.340750905,BOT,EOT
DIDC_335890280,,,,,,,Electric,WH,W,,,EasternUS,--,DIDC_335890280,DIDC_335890280,2.16.840.1.114416.14.335890280,BOT,EOT
DIDC_335890478,,,,,,,Electric,WH,W,,,EasternUS,--,DIDC_335890478,DIDC_335890478,2.16.840.1.114416.14.335890478,BOT,EOT
ESRVP000001,,BeVille,FL,,29.66358864,-82.4131532,Electric,WH,W,,1,EasternUSNoDst,Test_Transformer1,80000001,80000001,2.16.840.1.114416.0.80000001,BOT,EOT
ESRVP000002,,BeVille,FL,,29.66186278,-82.41542724,Electric,WH,W,,1,EasternUSNoDst,Test_Transformer1,80000002,80000002,2.16.840.1.114416.0.80000002,BOT,EOT
ESRVP000003,,BeVille,FL,,29.66107194,-82.41467744,Electric,WH,W,,1,EasternUSNoDst,Test_Transformer2,80000003,80000003,2.16.840.1.114416.0.80000003,BOT,EOT
ESRVP000004,,BeVille,FL,,29.66264882,-82.41297241,Electric,WH,W,,1,EasternUSNoDst,Test_Transformer2,80000004,80000004,2.16.840.1.114416.0.80000004,BOT,EOT
ESRVP151442,,WestHills,FL,,29.66659498,-82.41939677,Electric,WH,W,,1,EasternUSNoDst,XFR8667,80151442,80151442,2.16.840.1.114416.0.80151442,BOT,EOT
ESRVP151443,,WestHills,FL,,29.666276,-82.42271385,Electric,WH,W,,1,EasternUSNoDst,XFR8688,80151443,80151443,2.16.840.1.114416.0.80151443,BOT,EOT
ESRVP151444,,WestHills,FL,,29.66581829,-82.41317302,Electric,WH,W,,1,EasternUSNoDst,XFR8669,80151444,80151444,2.16.840.1.114416.0.80151444,BOT,EOT
ESRVP171966,,WestHills,FL,,29.65980814,-82.412174,Electric,WH,W,,1,EasternUSNoDst,XFR11197,80171966,80171966,2.16.840.1.114416.0.80171966,BOT,EOT
ESRVP197842,,WestHills,FL,,29.66815322,-82.41661903,Electric,WH,W,,1,EasternUSNoDst,XFR8643,80197842,80197842,2.16.840.1.114416.0.80197842,BOT,EOT
ESRVP29051,,WestHills,FL,,29.6667084,-82.41154197,Electric,WH,W,,1,EasternUSNoDst,XFR8345,8029051,8029051,2.16.840.1.114416.0.8029051,BOT,EOT
ESRVP29052,,WestHills,FL,,29.66656522,-82.41176356,Electric,WH,W,,1,EasternUSNoDst,XFR8345,8029052,8029052,2.16.840.1.114416.0.8029052,BOT,EOT
ESRVP29053,,WestHills,FL,,29.66707142,-82.41104398,Electric,WH,W,,1,EasternUSNoDst,XFR8344,8029053,8029053,2.16.840.1.114416.0.8029053,BOT,EOT
ESRVP29788,,WestHills,FL,,29.66770512,-82.41212514,Electric,WH,W,,1,EasternUSNoDst,XFR8637,8029788,8029788,2.16.840.1.114416.0.8029788,BOT,EOT
ESRVP29789,,WestHills,FL,,29.66820202,-82.41205834,Electric,WH,W,,1,EasternUSNoDst,XFR8639,8029789,8029789,2.16.840.1.114416.0.8029789,BOT,EOT
ESRVP29790,,WestHills,FL,,29.66891894,-82.41211272,Electric,WH,W,,1,EasternUSNoDst,XFR8638,8029790,8029790,2.16.840.1.114416.0.8029790,BOT,EOT
ESRVP29791,,WestHills,FL,,29.66717878,-82.41214194,Electric,WH,W,,1,EasternUSNoDst,XFR8345,8029791,8029791,2.16.840.1.114416.0.8029791,BOT,EOT
ESRVP29799,,WestHills,FL,,29.6705729,-82.42067213,Electric,WH,W,,1,EasternUSNoDst,XFR8634,8029799,8029799,2.16.840.1.114416.0.8029799,BOT,EOT
ESRVP29879,,WestHills,FL,,29.67083086,-82.42343296,Electric,WH,W,,1,EasternUSNoDst,XFR95150,8029879,8029879,2.16.840.1.114416.0.8029879,BOT,EOT
ESRVP29880,,WestHills,FL,,29.67063582,-82.42309773,Electric,WH,W,,1,EasternUSNoDst,XFR95150,8029880,8029880,2.16.840.1.114416.0.8029880,BOT,EOT
ESRVP29890,,WestHills,FL,,29.67005409,-82.42316501,Electric,WH,W,,1,EasternUSNoDst,XFR8632,8029890,8029890,2.16.840.1.114416.0.8029890,BOT,EOT
ESRVP29891,,WestHills,FL,,29.67022604,-82.42138517,Electric,WH,W,,1,EasternUSNoDst,XFR8635,8029891,8029891,2.16.840.1.114416.0.8029891,BOT,EOT
ESRVP29892,,WestHills,FL,,29.67027194,-82.4189927,Electric,WH,W,,1,EasternUSNoDst,XFR93230,8029892,8029892,2.16.840.1.114416.0.8029892,BOT,EOT
ESRVP29893,,WestHills,FL,,29.6676553,-82.4171301,Electric,WH,W,,1,EasternUSNoDst,XFR8652,8029893,8029893,2.16.840.1.114416.0.8029893,BOT,EOT
ESRVP29894,,WestHills,FL,,29.6677452,-82.41735221,Electric,WH,W,,1,EasternUSNoDst,XFR8652,8029894,8029894,2.16.840.1.114416.0.8029894,BOT,EOT
ESRVP29895,,WestHills,FL,,29.66946461,-82.41760963,Electric,WH,W,,1,EasternUSNoDst,XFR8645,8029895,8029895,2.16.840.1.114416.0.8029895,BOT,EOT
ESRVP29896,,WestHills,FL,,29.66940993,-82.4203472,Electric,WH,W,,1,EasternUSNoDst,XFR8649,8029896,8029896,2.16.840.1.114416.0.8029896,BOT,EOT
ESRVP29897,,WestHills,FL,,29.66924355,-82.42133561,Electric,WH,W,,1,EasternUSNoDst,XFR8649,8029897,8029897,2.16.840.1.114416.0.8029897,BOT,EOT
ESRVP29898,,WestHills,FL,,29.66931487,-82.42178483,Electric,WH,W,,1,EasternUSNoDst,XFR8658,8029898,8029898,2.16.840.1.114416.0.8029898,BOT,EOT
ESRVP29899,,WestHills,FL,,29.66797264,-82.42295665,Electric,WH,W,,1,EasternUSNoDst,XFR8636,8029899,8029899,2.16.840.1.114416.0.8029899,BOT,EOT
ESRVP29900,,WestHills,FL,,29.66733056,-82.42308399,Electric,WH,W,,1,EasternUSNoDst,XFR8636,8029900,8029900,2.16.840.1.114416.0.8029900,BOT,EOT
ESRVP29901,,WestHills,FL,,29.66816082,-82.42203976,Electric,WH,W,,1,EasternUSNoDst,XFR8659,8029901,8029901,2.16.840.1.114416.0.8029901,BOT,EOT
ESRVP29902,,WestHills,FL,,29.66811671,-82.42140064,Electric,WH,W,,1,EasternUSNoDst,XFR8658,8029902,8029902,2.16.840.1.114416.0.8029902,BOT,EOT
ESRVP29903,,WestHills,FL,,29.66819604,-82.42025304,Electric,WH,W,,1,EasternUSNoDst,XFR8656,8029903,8029903,2.16.840.1.114416.0.8029903,BOT,EOT
ESRVP29904,,WestHills,FL,,29.66819923,-82.41985448,Electric,WH,W,,1,EasternUSNoDst,XFR8656,8029904,8029904,2.16.840.1.114416.0.8029904,BOT,EOT
ESRVP29905,,WestHills,FL,,29.66792154,-82.41899887,Electric,WH,W,,1,EasternUSNoDst,XFR8655,8029905,8029905,2.16.840.1.114416.0.8029905,BOT,EOT
ESRVP29906,,WestHills,FL,,29.66851395,-82.41824562,Electric,WH,W,,1,EasternUSNoDst,XFR8642,8029906,8029906,2.16.840.1.114416.0.8029906,BOT,EOT
ESRVP29907,,WestHills,FL,,29.66772105,-82.41829343,Electric,WH,W,,1,EasternUSNoDst,XFR8652,8029907,8029907,2.16.840.1.114416.0.8029907,BOT,EOT
ESRVP29908,,WestHills,FL,,29.66711938,-82.41807984,Electric,WH,W,,1,EasternUSNoDst,XFR8651,8029908,8029908,2.16.840.1.114416.0.8029908,BOT,EOT
ESRVP29909,,WestHills,FL,,29.66610496,-82.41836995,Electric,WH,W,,1,EasternUSNoDst,XFR8666,8029909,8029909,2.16.840.1.114416.0.8029909,BOT,EOT
ESRVP29910,,WestHills,FL,,29.6663234,-82.41973002,Electric,WH,W,,1,EasternUSNoDst,XFR8667,8029910,8029910,2.16.840.1.114416.0.8029910,BOT,EOT
ESRVP29911,,WestHills,FL,,29.66885195,-82.41407064,Electric,WH,W,,1,EasternUSNoDst,XFR8650,8029911,8029911,2.16.840.1.114416.0.8029911,BOT,EOT
ESRVP29912,,WestHills,FL,,29.66853392,-82.41703012,Electric,WH,W,,1,EasternUSNoDst,XFR8643,8029912,8029912,2.16.840.1.114416.0.8029912,BOT,EOT
ESRVP29913,,WestHills,FL,,29.66839285,-82.41710056,Electric,WH,W,,1,EasternUSNoDst,XFR8643,8029913,8029913,2.16.840.1.114416.0.8029913,BOT,EOT
ESRVP29914,,WestHills,FL,,29.66688161,-82.41701717,Electric,WH,W,,1,EasternUSNoDst,XFR8663,8029914,8029914,2.16.840.1.114416.0.8029914,BOT,EOT
ESRVP29915,,WestHills,FL,,29.66734975,-82.41708897,Electric,WH,W,,1,EasternUSNoDst,XFR8668,8029915,8029915,2.16.840.1.114416.0.8029915,BOT,EOT
ESRVP29916,,WestHills,FL,,29.66819867,-82.4128755,Electric,WH,W,,1,EasternUSNoDst,XFR8639,8029916,8029916,2.16.840.1.114416.0.8029916,BOT,EOT
ESRVP29917,,WestHills,FL,,29.66847494,-82.4139692,Electric,WH,W,,1,EasternUSNoDst,XFR8650,8029917,8029917,2.16.840.1.114416.0.8029917,BOT,EOT
ESRVP29918,,WestHills,FL,,29.66729781,-82.41402586,Electric,WH,W,,1,EasternUSNoDst,XFR8641,8029918,8029918,2.16.840.1.114416.0.8029918,BOT,EOT
ESRVP29919,,WestHills,FL,,29.66746398,-82.41395146,Electric,WH,W,,1,EasternUSNoDst,XFR8641,8029919,8029919,2.16.840.1.114416.0.8029919,BOT,EOT
ESRVP29920,,WestHills,FL,,29.66755709,-82.41306986,Electric,WH,W,,1,EasternUSNoDst,XFR8657,8029920,8029920,2.16.840.1.114416.0.8029920,BOT,EOT
ESRVP29921,,WestHills,FL,,29.66585229,-82.41405001,Electric,WH,W,,1,EasternUSNoDst,XFR8660,8029921,8029921,2.16.840.1.114416.0.8029921,BOT,EOT
ESRVP29922,,WestHills,FL,,29.66626005,-82.41389979,Electric,WH,W,,1,EasternUSNoDst,XFR8660,8029922,8029922,2.16.840.1.114416.0.8029922,BOT,EOT
ESRVP29923,,WestHills,FL,,29.66654365,-82.41396813,Electric,WH,W,,1,EasternUSNoDst,XFR8662,8029923,8029923,2.16.840.1.114416.0.8029923,BOT,EOT
ESRVP29924,,WestHills,FL,,29.66739205,-82.41498746,Electric,WH,W,,1,EasternUSNoDst,XFR8640,8029924,8029924,2.16.840.1.114416.0.8029924,BOT,EOT
ESRVP29925,,WestHills,FL,,29.66717112,-82.41481656,Electric,WH,W,,1,EasternUSNoDst,XFR8641,8029925,8029925,2.16.840.1.114416.0.8029925,BOT,EOT
ESRVP29926,,WestHills,FL,,29.66678858,-82.41487306,Electric,WH,W,,1,EasternUSNoDst,XFR8664,8029926,8029926,2.16.840.1.114416.0.8029926,BOT,EOT
ESRVP29927,,WestHills,FL,,29.66630409,-82.414828,Electric,WH,W,,1,EasternUSNoDst,XFR8662,8029927,8029927,2.16.840.1.114416.0.8029927,BOT,EOT
ESRVP29928,,WestHills,FL,,29.66588411,-82.4154294,Electric,WH,W,,1,EasternUSNoDst,XFR8665,8029928,8029928,2.16.840.1.114416.0.8029928,BOT,EOT
ESRVP29929,,WestHills,FL,,29.66631617,-82.41596322,Electric,WH,W,,1,EasternUSNoDst,XFR8661,8029929,8029929,2.16.840.1.114416.0.8029929,BOT,EOT
ESRVP29930,,WestHills,FL,,29.66681905,-82.41593871,Electric,WH,W,,1,EasternUSNoDst,XFR8663,8029930,8029930,2.16.840.1.114416.0.8029930,BOT,EOT
ESRVP29931,,WestHills,FL,,29.66726461,-82.41595382,Electric,WH,W,,1,EasternUSNoDst,XFR8668,8029931,8029931,2.16.840.1.114416.0.8029931,BOT,EOT
ESRVP29932,,WestHills,FL,,29.66770425,-82.41579289,Electric,WH,W,,1,EasternUSNoDst,XFR133309,8029932,8029932,2.16.840.1.114416.0.8029932,BOT,EOT
ESRVP29933,,WestHills,FL,,29.66797268,-82.41579159,Electric,WH,W,,1,EasternUSNoDst,XFR133309,8029933,8029933,2.16.840.1.114416.0.8029933,BOT,EOT
ESRVP29934,,WestHills,FL,,29.66859039,-82.41572786,Electric,WH,W,,1,EasternUSNoDst,XFR8646,8029934,8029934,2.16.840.1.114416.0.8029934,BOT,EOT
ESRVP29935,,WestHills,FL,,29.66877988,-82.41576263,Electric,WH,W,,1,EasternUSNoDst,XFR8646,8029935,8029935,2.16.840.1.114416.0.8029935,BOT,EOT
ESRVP29936,,WestHills,FL,,29.66849595,-82.41472935,Electric,WH,W,,1,EasternUSNoDst,XFR8650,8029936,8029936,2.16.840.1.114416.0.8029936,BOT,EOT
ESRVP29937,,WestHills,FL,,29.66790007,-82.41495828,Electric,WH,W,,1,EasternUSNoDst,XFR8640,8029937,8029937,2.16.840.1.114416.0.8029937,BOT,EOT
ESRVP29938,,WestHills,FL,,29.66976702,-82.4149301,Electric,WH,W,,1,EasternUSNoDst,XFR83921,8029938,8029938,2.16.840.1.114416.0.8029938,BOT,EOT
ESRVP29939,,WestHills,FL,,29.66882819,-82.41643532,Electric,WH,W,,1,EasternUSNoDst,XFR8654,8029939,8029939,2.16.840.1.114416.0.8029939,BOT,EOT
ESRVP29940,,WestHills,FL,,29.6696705,-82.41642613,Electric,WH,W,,1,EasternUSNoDst,XFR8644,8029940,8029940,2.16.840.1.114416.0.8029940,BOT,EOT
ESRVP29941,,WestHills,FL,,29.66971582,-82.41554228,Electric,WH,W,,1,EasternUSNoDst,XFR83921,8029941,8029941,2.16.840.1.114416.0.8029941,BOT,EOT
ESRVP29942,,WestHills,FL,,29.66885127,-82.42241808,Electric,WH,W,,1,EasternUSNoDst,XFR8658,8029942,8029942,2.16.840.1.114416.0.8029942,BOT,EOT
ESRVP29943,,WestHills,FL,,29.66973722,-82.41599361,Electric,WH,W,,1,EasternUSNoDst,XFR83921,8029943,8029943,2.16.840.1.114416.0.8029943,BOT,EOT
ESRVP29945,,WestHills,FL,,29.66594894,-82.41276379,Electric,WH,W,,1,EasternUSNoDst,XFR8669,8029945,8029945,2.16.840.1.114416.0.8029945,BOT,EOT
ESRVP29946,,WestHills,FL,,29.66605494,-82.41256426,Electric,WH,W,,1,EasternUSNoDst,XFR8669,8029946,8029946,2.16.840.1.114416.0.8029946,BOT,EOT
ESRVP29947,,WestHills,FL,,29.66671274,-82.41300834,Electric,WH,W,,1,EasternUSNoDst,XFR8657,8029947,8029947,2.16.840.1.114416.0.8029947,BOT,EOT
ESRVP29951,,WestHills,FL,,29.66514255,-82.42065503,Electric,WH,W,,1,EasternUSNoDst,XFR8674,8029951,8029951,2.16.840.1.114416.0.8029951,BOT,EOT
ESRVP29952,,WestHills,FL,,29.66511762,-82.41912011,Electric,WH,W,,1,EasternUSNoDst,XFR8673,8029952,8029952,2.16.840.1.114416.0.8029952,BOT,EOT
ESRVP29953,,WestHills,FL,,29.66502444,-82.4185284,Electric,WH,W,,1,EasternUSNoDst,XFR8675,8029953,8029953,2.16.840.1.114416.0.8029953,BOT,EOT
ESRVP29957,,WestHills,FL,,29.66306082,-82.4185212,Electric,WH,W,,1,EasternUSNoDst,XFR8677,8029957,8029957,2.16.840.1.114416.0.8029957,BOT,EOT
ESRVP29958,,WestHills,FL,,29.66469935,-82.41929823,Electric,WH,W,,1,EasternUSNoDst,XFR8673,8029958,8029958,2.16.840.1.114416.0.8029958,BOT,EOT
ESRVP29963,,WestHills,FL,,29.66474412,-82.41825481,Electric,WH,W,,1,EasternUSNoDst,XFR8675,8029963,8029963,2.16.840.1.114416.0.8029963,BOT,EOT
ESRVP29964,,WestHills,FL,,29.66481369,-82.41802505,Electric,WH,W,,1,EasternUSNoDst,XFR8675,8029964,8029964,2.16.840.1.114416.0.8029964,BOT,EOT
ESRVP29966,,WestHills,FL,,29.66311203,-82.41726781,Electric,WH,W,,1,EasternUSNoDst,XFR8681,8029966,8029966,2.16.840.1.114416.0.8029966,BOT,EOT
ESRVP29967,,WestHills,FL,,29.66308207,-82.41726846,Electric,WH,W,,1,EasternUSNoDst,XFR8681,8029967,8029967,2.16.840.1.114416.0.8029967,BOT,EOT
ESRVP29968,,WestHills,FL,,29.66294135,-82.41727783,Electric,WH,W,,1,EasternUSNoDst,XFR8681,8029968,8029968,2.16.840.1.114416.0.8029968,BOT,EOT
ESRVP29974,,WestHills,FL,,29.66318862,-82.41804206,Electric,WH,W,,1,EasternUSNoDst,XFR8677,8029974,8029974,2.16.840.1.114416.0.8029974,BOT,EOT
ESRVP29975,,WestHills,FL,,29.66307748,-82.41852072,Electric,WH,W,,1,EasternUSNoDst,XFR8677,8029975,8029975,2.16.840.1.114416.0.8029975,BOT,EOT
ESRVP29976,,WestHills,FL,,29.66304276,-82.41852158,Electric,WH,W,,1,EasternUSNoDst,XFR8677,8029976,8029976,2.16.840.1.114416.0.8029976,BOT,EOT
ESRVP29981,,WestHills,FL,,29.66426678,-82.41635825,Electric,WH,W,,1,EasternUSNoDst,XFR8684,8029981,8029981,2.16.840.1.114416.0.8029981,BOT,EOT
ESRVP29983,,WestHills,FL,,29.66616496,-82.42090413,Electric,WH,W,,1,EasternUSNoDst,XFR8686,8029983,8029983,2.16.840.1.114416.0.8029983,BOT,EOT
ESRVP29985,,WestHills,FL,,29.66527842,-82.42090236,Electric,WH,W,,1,EasternUSNoDst,XFR8674,8029985,8029985,2.16.840.1.114416.0.8029985,BOT,EOT
ESRVP36461,,WestHills,FL,,29.65475247,-82.41215862,Electric,WH,W,,1,EasternUSNoDst,XFR10965,8036461,8036461,2.16.840.1.114416.0.8036461,BOT,EOT
ESRVP36462,,WestHills,FL,,29.65429512,-82.41215536,Electric,WH,W,,1,EasternUSNoDst,XFR11248,8036462,8036462,2.16.840.1.114416.0.8036462,BOT,EOT
ESRVP36869,,WestHills,FL,,29.65291215,-82.41214469,Electric,WH,W,,1,EasternUSNoDst,XFR11625,8036869,8036869,2.16.840.1.114416.0.8036869,BOT,EOT
ESRVP36870,,WestHills,FL,,29.65365348,-82.41215648,Electric,WH,W,,1,EasternUSNoDst,XFR11626,8036870,8036870,2.16.840.1.114416.0.8036870,BOT,EOT
ESRVP37341,,WestHills,FL,,29.65475061,-82.41254545,Electric,WH,W,,1,EasternUSNoDst,XFR11247,8037341,8037341,2.16.840.1.114416.0.8037341,BOT,EOT
ESRVP37342,,WestHills,FL,,29.65429913,-82.41246467,Electric,WH,W,,1,EasternUSNoDst,XFR11248,8037342,8037342,2.16.840.1.114416.0.8037342,BOT,EOT
ESRVP37343,,WestHills,FL,,29.65434231,-82.41266251,Electric,WH,W,,1,EasternUSNoDst,XFR11249,8037343,8037343,2.16.840.1.114416.0.8037343,BOT,EOT
ESRVP37344,,WestHills,FL,,29.654289,-82.41298077,Electric,WH,W,,1,EasternUSNoDst,XFR11250,8037344,8037344,2.16.840.1.114416.0.8037344,BOT,EOT
ESRVP37345,,WestHills,FL,,29.65478654,-82.41319421,Electric,WH,W,,1,EasternUSNoDst,XFR167953,8037345,8037345,2.16.840.1.114416.0.8037345,BOT,EOT
ESRVP37346,,WestHills,FL,,29.65462687,-82.41344278,Electric,WH,W,,1,EasternUSNoDst,XFR167951,8037346,8037346,2.16.840.1.114416.0.8037346,BOT,EOT
ESRVP37347,,WestHills,FL,,29.65431495,-82.41332674,Electric,WH,W,,1,EasternUSNoDst,XFR11250,8037347,8037347,2.16.840.1.114416.0.8037347,BOT,EOT
ESRVP37348,,WestHills,FL,,29.65464133,-82.41377819,Electric,WH,W,,1,EasternUSNoDst,XFR167951,8037348,8037348,2.16.840.1.114416.0.8037348,BOT,EOT
ESRVP37395,,WestHills,FL,,29.6606886,-82.41634721,Electric,WH,W,,1,EasternUSNoDst,XFR11216,8037395,8037395,2.16.840.1.114416.0.8037395,BOT,EOT
ESRVP37426,,WestHills,FL,,29.65498516,-82.41316085,Electric,WH,W,,1,EasternUSNoDst,XFR167953,8037426,8037426,2.16.840.1.114416.0.8037426,BOT,EOT
ESRVP37427,,WestHills,FL,,29.65512763,-82.41317656,Electric,WH,W,,1,EasternUSNoDst,XFR167953,8037427,8037427,2.16.840.1.114416.0.8037427,BOT,EOT
ESRVP37428,,WestHills,FL,,29.65498356,-82.41278991,Electric,WH,W,,1,EasternUSNoDst,XFR11305,8037428,8037428,2.16.840.1.114416.0.8037428,BOT,EOT
ESRVP37429,,WestHills,FL,,29.65530424,-82.41367807,Electric,WH,W,,1,EasternUSNoDst,XFR11303,8037429,8037429,2.16.840.1.114416.0.8037429,BOT,EOT
ESRVP37430,,WestHills,FL,,29.65534102,-82.41318801,Electric,WH,W,,1,EasternUSNoDst,XFR167953,8037430,8037430,2.16.840.1.114416.0.8037430,BOT,EOT
ESRVP37431,,WestHills,FL,,29.65533702,-82.41276449,Electric,WH,W,,1,EasternUSNoDst,XFR11304,8037431,8037431,2.16.840.1.114416.0.8037431,BOT,EOT
ESRVP37432,,WestHills,FL,,29.65507139,-82.41367705,Electric,WH,W,,1,EasternUSNoDst,XFR11303,8037432,8037432,2.16.840.1.114416.0.8037432,BOT,EOT
ESRVP37446,,WestHills,FL,,29.65909665,-82.41504217,Electric,WH,W,,1,EasternUSNoDst,XFR11314,8037446,8037446,2.16.840.1.114416.0.8037446,BOT,EOT
ESRVP37447,,WestHills,FL,,29.65936546,-82.41518842,Electric,WH,W,,1,EasternUSNoDst,XFR11314,8037447,8037447,2.16.840.1.114416.0.8037447,BOT,EOT
ESRVP38928,,WestHills,FL,,29.65296981,-82.41237141,Electric,WH,W,,1,EasternUSNoDst,XFR11625,8038928,8038928,2.16.840.1.114416.0.8038928,BOT,EOT
ESRVP38929,,WestHills,FL,,29.65318564,-82.41250105,Electric,WH,W,,1,EasternUSNoDst,XFR11625,8038929,8038929,2.16.840.1.114416.0.8038929,BOT,EOT
ESRVP38930,,WestHills,FL,,29.65344032,-82.41243101,Electric,WH,W,,1,EasternUSNoDst,XFR11626,8038930,8038930,2.16.840.1.114416.0.8038930,BOT,EOT
ESRVP38931,,WestHills,FL,,29.65364596,-82.41245693,Electric,WH,W,,1,EasternUSNoDst,XFR11706,8038931,8038931,2.16.840.1.114416.0.8038931,BOT,EOT
ESRVP38932,,WestHills,FL,,29.6535218,-82.41290801,Electric,WH,W,,1,EasternUSNoDst,XFR167954,8038932,8038932,2.16.840.1.114416.0.8038932,BOT,EOT
ESRVP39147,,WestHills,FL,,29.65381673,-82.41287325,Electric,WH,W,,1,EasternUSNoDst,XFR167954,8039147,8039147,2.16.840.1.114416.0.8039147,BOT,EOT
ESRVP76372,,WestHills,FL,,29.669507,-82.41893338,Electric,WH,W,,1,EasternUSNoDst,XFR93230,8076372,8076372,2.16.840.1.114416.0.8076372,BOT,EOT
LAF_00001,8701 Prairie Blvd,Brookings,SD,,44.30461333,-96.7856088,Electric,KWH,KW,,1,CentralUS,TX_LA_0001,M_LA_10000101,10000101,D_M_LA_10000101,BOT,EOT
LAF_00002,8321 Grove Ave,Brookings,SD,,44.30412101,-96.7826893,Electric,KWH,KW,,1,CentralUS,TX_LA_0002,M_LA_10000102,10000102,D_M_LA_10000102,BOT,EOT
LAF_00003,8319 Cottonwood Ave,Brookings,SD,,44.30400167,-96.78179347,Electric,KWH,KW,,1,CentralUS,TX_LA_0003,M_LA_10000103,10000103,D_M_LA_10000103,BOT,EOT
LAF_00004,8298 Grove Ave,Brookings,SD,,44.30689916,-96.7829548,Electric,KWH,KW,,1,CentralUS,TX_LA_0004,M_LA_10000104,10000104,D_M_LA_10000104,BOT,EOT
LAF_00005,5412 S 1st St,Brookings,SD,,44.30505766,-96.78062318,Electric,KWH,KW,,1,CentralUS,TX_LA_0005,M_LA_10000105,10000105,D_M_LA_10000105,BOT,EOT
LAF_00006,8307 Birch Ave,Brookings,SD,,44.30522938,-96.77922242,Electric,KWH,KW,,1,CentralUS,TX_LA_0006,M_LA_10000106,10000106,D_M_LA_10000106,BOT,EOT
LAF_00007,8308 Birch Ave,Brookings,SD,,44.30572956,-96.77929086,Electric,KWH,KW,,1,CentralUS,TX_LA_0006,M_LA_10000107,10000107,D_M_LA_10000107,BOT,EOT
LAF_00008,8312 Grove Ave,Brookings,SD,,44.30696487,-96.78151512,Electric,KWH,KW,,1,CentralUS,TX_LA_0004,M_LA_10000108,10000108,D_M_LA_10000108,BOT,EOT
LAF_00009,5401 S 1st St,Brookings,SD,,44.30641415,-96.77898062,Electric,KWH,KW,,1,CentralUS,TX_LA_0007,M_LA_10000109,10000109,D_M_LA_10000109,BOT,EOT
LAF_00010,8316 Cottonwood Ave,Brookings,SD,,44.30492193,-96.78130186,Electric,KWH,KW,,1,CentralUS,TX_LA_0008,M_LA_10000110,10000110,D_M_LA_10000110,BOT,EOT
LAF_000101,8322 Grove Ave,Brookings,SD,,44.30378694,-96.78236636,Electric,KWH,KW,,1,CentralUS,TX_LA_0002,M_LA_10000201,10000201,D_M_LA_10000201,BOT,EOT
LAF_000102,8320 Grove Ave,Brookings,SD,,44.3064353,-96.78023516,Electric,KWH,KW,,1,CentralUS,TX_LA_0017,M_LA_10000202,10000202,D_M_LA_10000202,BOT,EOT
LAF_000103,8318 Grove Ave,Brookings,SD,,44.30693246,-96.78025781,Electric,KWH,KW,,1,CentralUS,TX_LA_0017,M_LA_10000203,10000203,D_M_LA_10000203,BOT,EOT
LAF_000104,8316 Grove Ave,Brookings,SD,,44.30693245,-96.78062783,Electric,KWH,KW,,1,CentralUS,TX_LA_0017,M_LA_10000204,10000204,D_M_LA_10000204,BOT,EOT
LAF_000105,8314 Grove Ave,Brookings,SD,,44.30696217,-96.78129613,Electric,KWH,KW,,1,CentralUS,TX_LA_0017,M_LA_10000205,10000205,D_M_LA_10000205,BOT,EOT
LAF_000106,8310 Grove Ave,Brookings,SD,,44.30689732,-96.78182473,Electric,KWH,KW,,1,CentralUS,TX_LA_0004,M_LA_10000206,10000206,D_M_LA_10000206,BOT,EOT
LAF_000107,8308 Grove Ave,Brookings,SD,,44.30689731,-96.78206259,Electric,KWH,KW,,1,CentralUS,TX_LA_0004,M_LA_10000207,10000207,D_M_LA_10000207,BOT,EOT
LAF_000108,8306 Grove Ave,Brookings,SD,,44.30689731,-96.78228913,Electric,KWH,KW,,1,CentralUS,TX_LA_0004,M_LA_10000208,10000208,D_M_LA_10000208,BOT,EOT
LAF_000109,8304 Grove Ave,Brookings,SD,,44.3069,-96.78254211,Electric,KWH,KW,,1,CentralUS,TX_LA_0004,M_LA_10000209,10000209,D_M_LA_10000209,BOT,EOT
LAF_00011,5602 S 1st St,Brookings,SD,,44.30460315,-96.78062831,Electric,KWH,KW,,1,CentralUS,TX_LA_0005,M_LA_10000111,10000111,D_M_LA_10000111,BOT,EOT
LAF_000110,8302 Grove Ave,Brookings,SD,,44.3069,-96.78277242,Electric,KWH,KW,,1,CentralUS,TX_LA_0004,M_LA_10000210,10000210,D_M_LA_10000210,BOT,EOT
LAF_000111,8204 Grove Ave,Brookings,SD,,44.30689916,-96.78317476,Electric,KWH,KW,,1,CentralUS,TX_LA_0004,M_LA_10000211,10000211,D_M_LA_10000211,BOT,EOT
LAF_000112,8305 Cottonwood Ave,Brookings,SD,,44.30527525,-96.78268533,Electric,KWH,KW,,1,CentralUS,TX_LA_0015,M_LA_10000212,10000212,D_M_LA_10000212,BOT,EOT
LAF_000113,5606 S 2nd St,Brookings,SD,,44.30528105,-96.78428779,Electric,KWH,KW,,1,CentralUS,TX_LA_0010,M_LA_10000213,10000213,D_M_LA_10000213,BOT,EOT
LAF_000114,8204 Cottonwood Ave,Brookings,SD,,44.30573553,-96.78328205,Electric,KWH,KW,,1,CentralUS,TX_LA_0014,M_LA_10000214,10000214,D_M_LA_10000214,BOT,EOT
LAF_000115,5407 S 1st St,Brookings,SD,,44.30462797,-96.78260453,Electric,KWH,KW,,1,CentralUS,TX_LA_0009,M_LA_10000215,10000215,D_M_LA_10000215,BOT,EOT
LAF_00012,5414 S 1st St,Brookings,SD,,44.30460225,-96.78015767,Electric,KWH,KW,,1,CentralUS,TX_LA_0005,M_LA_10000112,10000112,D_M_LA_10000112,BOT,EOT
LAF_00013,5410 S 1st St,Brookings,SD,,44.30459145,-96.77980272,Electric,KWH,KW,,1,CentralUS,TX_LA_0005,M_LA_10000113,10000113,D_M_LA_10000113,BOT,EOT
LAF_00014,5408 S 1st St,Brookings,SD,,44.30510311,-96.78260883,Electric,KWH,KW,,1,CentralUS,TX_LA_0009,M_LA_10000114,10000114,D_M_LA_10000114,BOT,EOT
LAF_00015,5406 S 1st St,Brookings,SD,,44.30493363,-96.78260882,Electric,KWH,KW,,1,CentralUS,TX_LA_0009,M_LA_10000115,10000115,D_M_LA_10000115,BOT,EOT
LAF_00016,5404 S 1st St,Brookings,SD,,44.30474496,-96.78260435,Electric,KWH,KW,,1,CentralUS,TX_LA_0009,M_LA_10000116,10000116,D_M_LA_10000116,BOT,EOT
LAF_00017,5402 S 1st St,Brookings,SD,,44.30516707,-96.78209941,Electric,KWH,KW,,1,CentralUS,TX_LA_0009,M_LA_10000117,10000117,D_M_LA_10000117,BOT,EOT
LAF_00018,5403 S 1st St,Brookings,SD,,44.30494642,-96.78209941,Electric,KWH,KW,,1,CentralUS,TX_LA_0009,M_LA_10000118,10000118,D_M_LA_10000118,BOT,EOT
LAF_00019,5405 S 1st St,Brookings,SD,,44.30473537,-96.78209941,Electric,KWH,KW,,1,CentralUS,TX_LA_0009,M_LA_10000119,10000119,D_M_LA_10000119,BOT,EOT
LAF_00020,5409 S 1st St,Brookings,SD,,44.30458283,-96.77950327,Electric,KWH,KW,,1,CentralUS,TX_LA_0005,M_LA_10000120,10000120,D_M_LA_10000120,BOT,EOT
LAF_00021,5411 S 1st St,Brookings,SD,,44.30457637,-96.7791797,Electric,KWH,KW,,1,CentralUS,TX_LA_0005,M_LA_10000121,10000121,D_M_LA_10000121,BOT,EOT
LAF_00022,5413 S 1st St,Brookings,SD,,44.30477351,-96.77871901,Electric,KWH,KW,,1,CentralUS,TX_LA_0005,M_LA_10000122,10000122,D_M_LA_10000122,BOT,EOT
LAF_00023,5601 S 1st St,Brookings,SD,,44.30456739,-96.7788298,Electric,KWH,KW,,1,CentralUS,TX_LA_0005,M_LA_10000123,10000123,D_M_LA_10000123,BOT,EOT
LAF_00024,5608 S 2nd St,Brookings,SD,,44.3052779,-96.78456564,Electric,KWH,KW,,1,CentralUS,TX_LA_0010,M_LA_10000124,10000124,D_M_LA_10000124,BOT,EOT
LAF_00025,5604 S 2nd St,Brookings,SD,,44.30528734,-96.78497976,Electric,KWH,KW,,1,CentralUS,TX_LA_0010,M_LA_10000125,10000125,D_M_LA_10000125,BOT,EOT
LAF_00026,5602 S 2nd St,Brookings,SD,,44.30510482,-96.78495548,Electric,KWH,KW,,1,CentralUS,TX_LA_0010,M_LA_10000126,10000126,D_M_LA_10000126,BOT,EOT
LAF_00027,8201 Birch Ave,Brookings,SD,,44.3052902,-96.78071315,Electric,KWH,KW,,1,CentralUS,TX_LA_0011,M_LA_10000127,10000127,D_M_LA_10000127,BOT,EOT
LAF_00028,8203 Birch Ave,Brookings,SD,,44.30523884,-96.78029565,Electric,KWH,KW,,1,CentralUS,TX_LA_0011,M_LA_10000128,10000128,D_M_LA_10000128,BOT,EOT
LAF_00029,8301 Birch Ave,Brookings,SD,,44.30523769,-96.78003721,Electric,KWH,KW,,1,CentralUS,TX_LA_0011,M_LA_10000129,10000129,D_M_LA_10000129,BOT,EOT
LAF_00030,8303 Birch Ave,Brookings,SD,,44.30524199,-96.77977397,Electric,KWH,KW,,1,CentralUS,TX_LA_0006,M_LA_10000130,10000130,D_M_LA_10000130,BOT,EOT
LAF_00031,8305 Birch Ave,Brookings,SD,,44.30523886,-96.77948485,Electric,KWH,KW,,1,CentralUS,TX_LA_0006,M_LA_10000131,10000131,D_M_LA_10000131,BOT,EOT
LAF_00032,8309 Birch Ave,Brookings,SD,,44.30525313,-96.77898414,Electric,KWH,KW,,1,CentralUS,TX_LA_0006,M_LA_10000132,10000132,D_M_LA_10000132,BOT,EOT
LAF_00033,8311 Birch Ave,Brookings,SD,,44.30517745,-96.77877766,Electric,KWH,KW,,1,CentralUS,TX_LA_0006,M_LA_10000133,10000133,D_M_LA_10000133,BOT,EOT
LAF_00034,8313 Birch Ave,Brookings,SD,,44.30450642,-96.78208642,Electric,KWH,KW,,1,CentralUS,TX_LA_0012,M_LA_10000134,10000134,D_M_LA_10000134,BOT,EOT
LAF_00035,8315 Birch Ave,Brookings,SD,,44.30433339,-96.7820802,Electric,KWH,KW,,1,CentralUS,TX_LA_0012,M_LA_10000135,10000135,D_M_LA_10000135,BOT,EOT
LAF_00036,8317 Birch Ave,Brookings,SD,,44.30413803,-96.78207386,Electric,KWH,KW,,1,CentralUS,TX_LA_0012,M_LA_10000136,10000136,D_M_LA_10000136,BOT,EOT
LAF_00037,8319 Birch Ave,Brookings,SD,,44.30410957,-96.78057774,Electric,KWH,KW,,1,CentralUS,TX_LA_0013,M_LA_10000137,10000137,D_M_LA_10000137,BOT,EOT
LAF_00038,8321 Birch Ave,Brookings,SD,,44.30410672,-96.78029083,Electric,KWH,KW,,1,CentralUS,TX_LA_0013,M_LA_10000138,10000138,D_M_LA_10000138,BOT,EOT
LAF_00039,8323 Birch Ave,Brookings,SD,,44.30409816,-96.77996806,Electric,KWH,KW,,1,CentralUS,TX_LA_0013,M_LA_10000139,10000139,D_M_LA_10000139,BOT,EOT
LAF_00040,8324 Birch Ave,Brookings,SD,,44.30410101,-96.77960544,Electric,KWH,KW,,1,CentralUS,TX_LA_0013,M_LA_10000140,10000140,D_M_LA_10000140,BOT,EOT
LAF_00041,8322 Birch Ave,Brookings,SD,,44.30409816,-96.77927868,Electric,KWH,KW,,1,CentralUS,TX_LA_0013,M_LA_10000141,10000141,D_M_LA_10000141,BOT,EOT
LAF_00042,8320 Birch Ave,Brookings,SD,,44.30410101,-96.77899177,Electric,KWH,KW,,1,CentralUS,TX_LA_0013,M_LA_10000142,10000142,D_M_LA_10000142,BOT,EOT
LAF_00043,8318 Birch Ave,Brookings,SD,,44.30452771,-96.78262185,Electric,KWH,KW,,1,CentralUS,TX_LA_0012,M_LA_10000143,10000143,D_M_LA_10000143,BOT,EOT
LAF_00044,8314 Birch Ave,Brookings,SD,,44.30433046,-96.78261694,Electric,KWH,KW,,1,CentralUS,TX_LA_0012,M_LA_10000144,10000144,D_M_LA_10000144,BOT,EOT
LAF_00045,8312 Birch Ave,Brookings,SD,,44.30572957,-96.77873791,Electric,KWH,KW,,1,CentralUS,TX_LA_0006,M_LA_10000145,10000145,D_M_LA_10000145,BOT,EOT
LAF_00046,8310 Birch Ave,Brookings,SD,,44.30572221,-96.77903601,Electric,KWH,KW,,1,CentralUS,TX_LA_0006,M_LA_10000146,10000146,D_M_LA_10000146,BOT,EOT
LAF_00047,8306 Birch Ave,Brookings,SD,,44.30577193,-96.7795732,Electric,KWH,KW,,1,CentralUS,TX_LA_0006,M_LA_10000147,10000147,D_M_LA_10000147,BOT,EOT
LAF_00048,8304 Birch Ave,Brookings,SD,,44.30575687,-96.77979985,Electric,KWH,KW,,1,CentralUS,TX_LA_0011,M_LA_10000148,10000148,D_M_LA_10000148,BOT,EOT
LAF_00049,8302 Birch Ave,Brookings,SD,,44.30574518,-96.78004434,Electric,KWH,KW,,1,CentralUS,TX_LA_0011,M_LA_10000149,10000149,D_M_LA_10000149,BOT,EOT
LAF_00050,8204 Birch Ave,Brookings,SD,,44.30572521,-96.78031563,Electric,KWH,KW,,1,CentralUS,TX_LA_0011,M_LA_10000150,10000150,D_M_LA_10000150,BOT,EOT
LAF_00051,8202 Birch Ave,Brookings,SD,,44.30570697,-96.78062038,Electric,KWH,KW,,1,CentralUS,TX_LA_0011,M_LA_10000151,10000151,D_M_LA_10000151,BOT,EOT
LAF_00052,8201 Cottonwood Ave,Brookings,SD,,44.30527965,-96.78403226,Electric,KWH,KW,,1,CentralUS,TX_LA_0014,M_LA_10000152,10000152,D_M_LA_10000152,BOT,EOT
LAF_00053,8203 Cottonwood Ave,Brookings,SD,,44.30527202,-96.78378851,Electric,KWH,KW,,1,CentralUS,TX_LA_0014,M_LA_10000153,10000153,D_M_LA_10000153,BOT,EOT
LAF_00054,8301 Cottonwood Ave,Brookings,SD,,44.3052668,-96.78328423,Electric,KWH,KW,,1,CentralUS,TX_LA_0014,M_LA_10000154,10000154,D_M_LA_10000154,BOT,EOT
LAF_00055,8303 Cottonwood Ave,Brookings,SD,,44.30526575,-96.78302015,Electric,KWH,KW,,1,CentralUS,TX_LA_0014,M_LA_10000155,10000155,D_M_LA_10000155,BOT,EOT
LAF_00056,8307 Cottonwood Ave,Brookings,SD,,44.30528459,-96.78208942,Electric,KWH,KW,,1,CentralUS,TX_LA_0015,M_LA_10000156,10000156,D_M_LA_10000156,BOT,EOT
LAF_00057,8309 Cottonwood Ave,Brookings,SD,,44.30528693,-96.78176489,Electric,KWH,KW,,1,CentralUS,TX_LA_0015,M_LA_10000157,10000157,D_M_LA_10000157,BOT,EOT
LAF_00058,8311 Cottonwood Ave,Brookings,SD,,44.3052848,-96.78132967,Electric,KWH,KW,,1,CentralUS,TX_LA_0015,M_LA_10000158,10000158,D_M_LA_10000158,BOT,EOT
LAF_00059,8313 Cottonwood Ave,Brookings,SD,,44.30452258,-96.7812782,Electric,KWH,KW,,1,CentralUS,TX_LA_0008,M_LA_10000159,10000159,D_M_LA_10000159,BOT,EOT
LAF_00060,8315 Cottonwood Ave,Brookings,SD,,44.30432267,-96.78132382,Electric,KWH,KW,,1,CentralUS,TX_LA_0008,M_LA_10000160,10000160,D_M_LA_10000160,BOT,EOT
LAF_00061,8317 Cottonwood Ave,Brookings,SD,,44.3040998,-96.78130891,Electric,KWH,KW,,1,CentralUS,TX_LA_0008,M_LA_10000161,10000161,D_M_LA_10000161,BOT,EOT
LAF_00062,8321 Cottonwood Ave,Brookings,SD,,44.30391009,-96.78143098,Electric,KWH,KW,,1,CentralUS,TX_LA_0003,M_LA_10000162,10000162,D_M_LA_10000162,BOT,EOT
LAF_00063,8323 Cottonwood Ave,Brookings,SD,,44.30364479,-96.78212205,Electric,KWH,KW,,1,CentralUS,TX_LA_0003,M_LA_10000163,10000163,D_M_LA_10000163,BOT,EOT
LAF_00064,5508 S 2nd St,Brookings,SD,,44.30606749,-96.78326792,Electric,KWH,KW,,1,CentralUS,TX_LA_0016,M_LA_10000164,10000164,D_M_LA_10000164,BOT,EOT
LAF_00065,5506 S 2nd St,Brookings,SD,,44.30625407,-96.78326021,Electric,KWH,KW,,1,CentralUS,TX_LA_0016,M_LA_10000165,10000165,D_M_LA_10000165,BOT,EOT
LAF_00066,5504 S 2nd St,Brookings,SD,,44.30577445,-96.7837898,Electric,KWH,KW,,1,CentralUS,TX_LA_0016,M_LA_10000166,10000166,D_M_LA_10000166,BOT,EOT
LAF_00067,5502 S 2nd St,Brookings,SD,,44.30630564,-96.78378691,Electric,KWH,KW,,1,CentralUS,TX_LA_0016,M_LA_10000167,10000167,D_M_LA_10000167,BOT,EOT
LAF_00068,8324 Cottonwood Ave,Brookings,SD,,44.30359057,-96.78188544,Electric,KWH,KW,,1,CentralUS,TX_LA_0003,M_LA_10000168,10000168,D_M_LA_10000168,BOT,EOT
LAF_00069,8322 Cottonwood Ave,Brookings,SD,,44.3035299,-96.78160596,Electric,KWH,KW,,1,CentralUS,TX_LA_0003,M_LA_10000169,10000169,D_M_LA_10000169,BOT,EOT
LAF_00070,8320 Cottonwood Ave,Brookings,SD,,44.30346841,-96.78131253,Electric,KWH,KW,,1,CentralUS,TX_LA_0003,M_LA_10000170,10000170,D_M_LA_10000170,BOT,EOT
LAF_00071,8318 Cottonwood Ave,Brookings,SD,,44.30472046,-96.78129425,Electric,KWH,KW,,1,CentralUS,TX_LA_0008,M_LA_10000171,10000171,D_M_LA_10000171,BOT,EOT
LAF_00072,8314 Cottonwood Ave,Brookings,SD,,44.30508425,-96.78131148,Electric,KWH,KW,,1,CentralUS,TX_LA_0008,M_LA_10000172,10000172,D_M_LA_10000172,BOT,EOT
LAF_00073,8312 Cottonwood Ave,Brookings,SD,,44.30582227,-96.78136005,Electric,KWH,KW,,1,CentralUS,TX_LA_0015,M_LA_10000173,10000173,D_M_LA_10000173,BOT,EOT
LAF_00074,8310 Cottonwood Ave,Brookings,SD,,44.30573744,-96.78166989,Electric,KWH,KW,,1,CentralUS,TX_LA_0015,M_LA_10000174,10000174,D_M_LA_10000174,BOT,EOT
LAF_00075,8308 Cottonwood Ave,Brookings,SD,,44.30573813,-96.78210399,Electric,KWH,KW,,1,CentralUS,TX_LA_0015,M_LA_10000175,10000175,D_M_LA_10000175,BOT,EOT
LAF_00076,8306 Cottonwood Ave,Brookings,SD,,44.30573811,-96.7825078,Electric,KWH,KW,,1,CentralUS,TX_LA_0015,M_LA_10000176,10000176,D_M_LA_10000176,BOT,EOT
LAF_00077,8304 Cottonwood Ave,Brookings,SD,,44.3057381,-96.78279871,Electric,KWH,KW,,1,CentralUS,TX_LA_0015,M_LA_10000177,10000177,D_M_LA_10000177,BOT,EOT
LAF_00078,8302 Cottonwood Ave,Brookings,SD,,44.30573218,-96.78303626,Electric,KWH,KW,,1,CentralUS,TX_LA_0014,M_LA_10000178,10000178,D_M_LA_10000178,BOT,EOT
LAF_00079,8203 Grove Ave,Brookings,SD,,44.30648659,-96.78323681,Electric,KWH,KW,,1,CentralUS,TX_LA_0004,M_LA_10000179,10000179,D_M_LA_10000179,BOT,EOT
LAF_00080,8301 Grove Ave,Brookings,SD,,44.3064893,-96.78293476,Electric,KWH,KW,,1,CentralUS,TX_LA_0004,M_LA_10000180,10000180,D_M_LA_10000180,BOT,EOT
LAF_00081,8303 Grove Ave,Brookings,SD,,44.30649201,-96.78265536,Electric,KWH,KW,,1,CentralUS,TX_LA_0004,M_LA_10000181,10000181,D_M_LA_10000181,BOT,EOT
LAF_00082,8305 Grove Ave,Brookings,SD,,44.30648391,-96.78240994,Electric,KWH,KW,,1,CentralUS,TX_LA_0004,M_LA_10000182,10000182,D_M_LA_10000182,BOT,EOT
LAF_00083,8307 Grove Ave,Brookings,SD,,44.30648392,-96.78221738,Electric,KWH,KW,,1,CentralUS,TX_LA_0004,M_LA_10000183,10000183,D_M_LA_10000183,BOT,EOT
LAF_00084,8309 Grove Ave,Brookings,SD,,44.30648122,-96.78203615,Electric,KWH,KW,,1,CentralUS,TX_LA_0004,M_LA_10000184,10000184,D_M_LA_10000184,BOT,EOT
LAF_00085,8311 Grove Ave,Brookings,SD,,44.30648122,-96.78181339,Electric,KWH,KW,,1,CentralUS,TX_LA_0004,M_LA_10000185,10000185,D_M_LA_10000185,BOT,EOT
LAF_00086,8313 Grove Ave,Brookings,SD,,44.3064434,-96.78152644,Electric,KWH,KW,,1,CentralUS,TX_LA_0017,M_LA_10000186,10000186,D_M_LA_10000186,BOT,EOT
LAF_00087,8315 Grove Ave,Brookings,SD,,44.3064407,-96.78128479,Electric,KWH,KW,,1,CentralUS,TX_LA_0017,M_LA_10000187,10000187,D_M_LA_10000187,BOT,EOT
LAF_00088,8317 Grove Ave,Brookings,SD,,44.30644341,-96.78071089,Electric,KWH,KW,,1,CentralUS,TX_LA_0017,M_LA_10000188,10000188,D_M_LA_10000188,BOT,EOT
LAF_00089,8319 Grove Ave,Brookings,SD,,44.30643801,-96.78043527,Electric,KWH,KW,,1,CentralUS,TX_LA_0017,M_LA_10000189,10000189,D_M_LA_10000189,BOT,EOT
LAF_00090,8323 Grove Ave,Brookings,SD,,44.30641681,-96.77998404,Electric,KWH,KW,,1,CentralUS,TX_LA_0007,M_LA_10000190,10000190,D_M_LA_10000190,BOT,EOT
LAF_00091,8325 Grove Ave,Brookings,SD,,44.30641681,-96.7796128,Electric,KWH,KW,,1,CentralUS,TX_LA_0007,M_LA_10000191,10000191,D_M_LA_10000191,BOT,EOT
LAF_00092,8327 Grove Ave,Brookings,SD,,44.30641946,-96.77925259,Electric,KWH,KW,,1,CentralUS,TX_LA_0007,M_LA_10000192,10000192,D_M_LA_10000192,BOT,EOT
LAF_00093,8704 Grove Ave,Brookings,SD,,44.3064115,-96.77874181,Electric,KWH,KW,,1,CentralUS,TX_LA_0007,M_LA_10000193,10000193,D_M_LA_10000193,BOT,EOT
LAF_00094,8702 Grove Ave,Brookings,SD,,44.30691625,-96.77866786,Electric,KWH,KW,,1,CentralUS,TX_LA_0007,M_LA_10000194,10000194,D_M_LA_10000194,BOT,EOT
LAF_00095,8334 Grove Ave,Brookings,SD,,44.30691906,-96.7788833,Electric,KWH,KW,,1,CentralUS,TX_LA_0007,M_LA_10000195,10000195,D_M_LA_10000195,BOT,EOT
LAF_00096,8332 Grove Ave,Brookings,SD,,44.30691345,-96.77913287,Electric,KWH,KW,,1,CentralUS,TX_LA_0007,M_LA_10000196,10000196,D_M_LA_10000196,BOT,EOT
LAF_00097,8330 Grove Ave,Brookings,SD,,44.30691345,-96.77958646,Electric,KWH,KW,,1,CentralUS,TX_LA_0007,M_LA_10000197,10000197,D_M_LA_10000197,BOT,EOT
LAF_00098,8328 Grove Ave,Brookings,SD,,44.30691907,-96.77982101,Electric,KWH,KW,,1,CentralUS,TX_LA_0007,M_LA_10000198,10000198,D_M_LA_10000198,BOT,EOT
LAF_00099,8326 Grove Ave,Brookings,SD,,44.30692187,-96.78004422,Electric,KWH,KW,,1,CentralUS,TX_LA_0007,M_LA_10000199,10000199,D_M_LA_10000199,BOT,EOT
LAF_00100,8324 Grove Ave,Brookings,SD,,44.30388438,-96.78265349,Electric,KWH,KW,,1,CentralUS,TX_LA_0002,M_LA_10000200,10000200,D_M_LA_10000200,BOT,EOT
NPE-DIDEMO-01,8520 Six Forks Rd,Raleigh,NC,27615,35.8953401,-78.6525431,Electric,WH,W,,1,EasternUS,Raleigh_SampleTx_001,EI0338108492,338108492,2.16.840.1.114416.34.338108492,BOT,EOT
NPE-DIDEMO-02,8529 Six Forks Rd,Raleigh,NC,27615,35.8952402,-78.6523432,Electric,WH,W,,,EasternUS,--,EI0338108467,338108467,2.16.840.1.114416.34.338108467,BOT,EOT
NPE-DIDEMO-03,8529 Six Forks Rd,Raleigh,NC,27615,35.8952403,-78.6523433,Electric,WH,W,,,EasternUS,--,EI0338108466,338108466,2.16.840.1.114416.34.338108466,BOT,EOT
NPE-DIDEMO-04,8529 Six Forks Rd,Raleigh,NC,27615,35.8952404,-78.6523434,Electric,WH,W,,,EasternUS,--,EI0338108468,338108468,2.16.840.1.114416.34.338108468,BOT,EOT
NPE-DIDEMO-05,8529 Six Forks Rd,Raleigh,NC,27615,35.8952405,-78.6523435,Electric,WH,W,,,EasternUS,--,EI0338108469,338108469,2.16.840.1.114416.34.338108469,BOT,EOT
NPE-DIDEMO-06,8529 Six Forks Rd,Raleigh,NC,27615,35.8952406,-78.6523436,Electric,WH,W,,,EasternUS,--,EI0338108490,338108490,2.16.840.1.114416.34.338108490,BOT,EOT
NPE-DIDEMO-07,8529 Six Forks Rd,Raleigh,NC,27615,35.89526,-78.650033,Electric,WH,W,,,EasternUS,--,EI0338108491,338108491,2.16.840.1.114416.34.338108491,BOT,EOT
NPE-DIDEMO-09,255 Matheson Blvd W,Mississauga,ON,L5R3G3,43.6149381,-79.6800251,Electric,WH,W,,,EasternUS,--,EI0338108438,338108438,2.16.840.1.114416.34.338108438,BOT,EOT
NPE-DIDEMO-10,255 Matheson Blvd W,Mississauga,ON,L5R3G3,43.6149382,-79.6800252,Electric,WH,W,,,EasternUS,--,EI0338108439,338108439,2.16.840.1.114416.34.338108439,BOT,EOT
NPE-DIDEMO-11,255 Matheson Blvd W,Mississauga,ON,L5R3G3,43.6149383,-79.6800253,Electric,WH,W,,,EasternUS,--,EI0338108440,338108440,2.16.840.1.114416.34.338108440,BOT,EOT
NPE-DIDEMO-12,255 Matheson Blvd W,Mississauga,ON,L5R3G3,43.6149384,-79.6800254,Electric,WH,W,,,EasternUS,--,EI0338108441,338108441,2.16.840.1.114416.34.338108441,BOT,EOT
NPE-DIDEMO-13,255 Matheson Blvd W,Mississauga,ON,L5R3G3,43.6149385,-79.6800255,Electric,WH,W,,,EasternUS,--,EI0338108446,338108446,2.16.840.1.114416.34.338108446,BOT,EOT
NPE-DIDEMO-14,255 Matheson Blvd W,Mississauga,ON,L5R3G3,43.6149386,-79.6800256,Electric,WH,W,,,EasternUS,--,EI0338108447,338108447,2.16.840.1.114416.34.338108447,BOT,EOT
NPE-DIDEMO-15,255 Matheson Blvd W,Mississauga,ON,L5R3G3,43.6149387,-79.6800257,Electric,WH,W,,,EasternUS,--,EI0338108448,338108448,2.16.840.1.114416.34.338108448,BOT,EOT
NPE-DIDEMO-16,255 Matheson Blvd W,Mississauga,ON,L5R3G3,43.6149388,-79.6800258,Electric,WH,W,,,EasternUS,--,EI0338108449,338108449,2.16.840.1.114416.34.338108449,BOT,EOT
NPE-DIDEMO-17,255 Matheson Blvd W,Mississauga,ON,L5R3G3,43.6149389,-79.6800259,Electric,WH,W,,,EasternUS,--,EI0338108462,338108462,2.16.840.1.114416.34.338108462,BOT,EOT
NPE-DIDEMO-18,8529 Six Forks Rd,Raleigh,NC,27615,35.895271,-78.650033,Electric,WH,W,,,EasternUS,--,EI0338108463,338108463,2.16.840.1.114416.34.338108463,BOT,EOT
NPE-DIDEMO-19,255 Matheson Blvd W,Mississauga,ON,L5R3G3,43.6149391,-79.6800261,Electric,WH,W,,,EasternUS,--,EI0338108464,338108464,2.16.840.1.114416.34.338108464,BOT,EOT
NPE-DIDEMO-21,8529 Six Forks Rd,Raleigh,NC,27615,35.89527,-78.650033,Electric,WH,W,,,EasternUS,--,EI0338108470,338108470,2.16.840.1.114416.34.338108470,BOT,EOT
NPE-DIDEMO-22,8529 Six Forks Rd,Raleigh,NC,27615,35.895269,-78.650033,Electric,WH,W,,,EasternUS,--,EI0338108471,338108471,2.16.840.1.114416.34.338108471,BOT,EOT
NPE-DIDEMO-23,8529 Six Forks Rd,Raleigh,NC,27615,35.895268,-78.650033,Electric,WH,W,,,EasternUS,--,EI0338108472,338108472,2.16.840.1.114416.34.338108472,BOT,EOT
NPE-DIDEMO-24,80 Addiscott Court,Markham,ON,L6G1A6,43.8433893,-79.352329,Electric,WH,W,,,EasternUS,--,EI0338108473,338108473,2.16.840.1.114416.34.338108473,BOT,EOT
NPE-DIDEMO-26,8529 Six Forks Rd,Raleigh,NC,27615,35.895262,-78.650033,Electric,WH,W,,,EasternUS,--,EI0338108511,338108511,2.16.840.1.114416.34.338108511,BOT,EOT
NPE-DIDEMO-29,8529 Six Forks Rd,Raleigh,NC,27615,35.895265,-78.650033,Electric,WH,W,,,EasternUS,--,EI0338108514,338108514,2.16.840.1.114416.34.338108514,BOT,EOT
NPE-DIDEMO-30,8529 Six Forks Rd,Raleigh,NC,27615,35.895267,-78.650033,Electric,WH,W,,,EasternUS,--,EI0338108515,338108515,2.16.840.1.114416.34.338108515,BOT,EOT
NPE-DIDEMO-32,80 Addiscott Court,Markham,ON,L6G1A6,43.8433891,-79.3523298,Electric,WH,W,,,EasternUS,--,EI0338108517,338108517,2.16.840.1.114416.34.338108517,BOT,EOT
NPE-DIDEMO-33,8529 Six Forks Rd,Raleigh,NC,27615,35.8952401,-78.6523431,Electric,WH,W,,,EasternUS,--,EI0338108495,338108495,2.16.840.1.114416.34.338108495,BOT,EOT
NPE-DIDEMO-34,8529 Six Forks Rd,Raleigh,NC,27615,35.8952401,-78.6523431,Electric,WH,W,,,EasternUS,--,EI0338108481,338108481,2.16.840.1.114416.34.338108481,BOT,EOT
NPE-DIDEMO-36,8529 Six Forks Rd,Raleigh,NC,27615,35.8952401,-78.6523431,Electric,WH,W,,,EasternUS,--,EI0338108494,338108494,2.16.840.1.114416.34.338108494,BOT,EOT
NPE-DIDEMO-37,8529 Six Forks Rd,Raleigh,NC,27615,35.8952401,-78.6523431,Electric,WH,W,,,EasternUS,--,EI0338108497,338108497,2.16.840.1.114416.34.338108497,BOT,11/21/2024 0:00
NPE-DIDEMO-37,8529 Six Forks Rd,Raleigh,NC,27615,35.8952401,-78.6523431,Electric,,,,,EasternUS,--,EI0338108497,338108497,2.16.840.1.114416.34.338108497,11/21/2024 0:00,EOT
NPE-DIDEMO-38,8529 Six Forks Rd,Raleigh,NC,27615,35.8952401,-78.6523431,Electric,WH,W,,,EasternUS,--,EI0338108478,338108478,2.16.840.1.114416.34.338108478,BOT,11/21/2024 0:00
NPE-DIDEMO-38,8529 Six Forks Rd,Raleigh,NC,27615,35.8952401,-78.6523431,Electric,,,,,EasternUS,--,EI0338108478,338108478,2.16.840.1.114416.34.338108478,11/21/2024 0:00,EOT
NPE-DIDEMO-39,8529 Six Forks Rd,Raleigh,NC,27615,35.8952401,-78.6523431,Electric,WH,W,,,EasternUS,--,EI0338108480,338108480,2.16.840.1.114416.34.338108480,BOT,11/21/2024 0:00
NPE-DIDEMO-39,8529 Six Forks Rd,Raleigh,NC,27615,35.8952401,-78.6523431,Electric,,,,,EasternUS,--,EI0338108480,338108480,2.16.840.1.114416.34.338108480,11/21/2024 0:00,EOT
NPE-DIDEMO-40,8529 Six Forks Rd,Raleigh,NC,27615,35.8952401,-78.6523431,Electric,WH,W,,,EasternUS,--,EI0338108479,338108479,2.16.840.1.114416.34.338108479,BOT,EOT
NPE-DIDEMO-41,8529 Six Forks Rd,Raleigh,NC,27615,35.8952401,-78.6523431,Electric,WH,W,,,EasternUS,--,EI0338108430,338108430,2.16.840.1.114416.34.338108430,BOT,EOT
NPE-DIDEMO-42,8529 Six Forks Rd,Raleigh,NC,27615,35.8952401,-78.6523431,Electric,WH,W,,,EasternUS,--,EI0338108432,338108432,2.16.840.1.114416.34.338108432,BOT,EOT
NPE-DIDEMO-43,8529 Six Forks Rd,Raleigh,NC,27615,35.8952401,-78.6523431,Electric,WH,W,,,EasternUS,--,EI0338108444,338108444,2.16.840.1.114416.34.338108444,BOT,EOT
NPE-DIDEMO-44,8529 Six Forks Rd,Raleigh,NC,27615,35.8952401,-78.6523431,Electric,WH,W,,,EasternUS,--,EI0338108431,338108431,2.16.840.1.114416.34.338108431,BOT,EOT
NPE-DIDEMO-47,8529 Six Forks Rd,Raleigh,NC,27615,35.8952401,-78.6523431,Electric,WH,W,,,EasternUS,--,EI0338108443,338108443,2.16.840.1.114416.34.338108443,BOT,EOT
NPE-DIDEMO-48,8529 Six Forks Rd,Raleigh,NC,27615,35.8952401,-78.6523431,Electric,WH,W,,,EasternUS,--,EI0338108433,338108433,2.16.840.1.114416.34.338108433,BOT,EOT
NPE-DIDEMO-49,117 N. Cass Ave.,Westmont,IL,60559,35.8972401,-78.6523431,Electric,WH,W,,,CentralUS,Raleigh_SampleTx_001,EI0340771549,340771549,2.16.840.1.114416.34.340771549,BOT,EOT
NPE-DIDEMO-51,123 Easy St.,Raleigh,NC,12345,35.8950982,-78.6510293,Electric,WH,W,,,EasternUS,--,EI0340771553,340771553,2.16.840.1.114416.34.340771553,BOT,EOT
NPE-DIDEMO-53,123 Easy St.,Dallas,TX,12345,32.77328777,-96.80001456,Electric,WH,W,,,EasternUS,--,EI0340771565,340771565,2.16.840.1.114416.34.340771565,BOT,EOT
NPE-DIDEMO-54,123 Easy St.,Westmont,IL,12345,35.8953401,-78.6525431,Electric,WH,W,,1,CentralUS,Raleigh_SampleTx_001,EI0340771542,340771542,2.16.840.1.114416.34.340771542,BOT,EOT
NPE-DIDEMO-55,123 Easy St.,Westmont,IL,12345,41.8987543,-87.875104,Electric,,,,,CentralUS,--,EI0335891090,335891090,2.16.840.1.114416.34.335891090,BOT,3/7/2024 0:00
NPE-DIDEMO-56,8520 Six Forks Rd,Raleigh,NC,27615,35.8953401,-78.6525431,Electric,WH,W,,1,EasternUS,Raleigh_SampleTx_001,EI0338108442,338108442,2.16.840.1.114416.34.338108442,BOT,EOT
NPE-DIDEMO-58,123 Easy St.,Downers Grove,IL,12345,41.9952782,-78.7501093,Electric,WH,W,,,EasternUS,--,EI0346096080,346096080,2.16.840.1.114416.34.346096080,8/28/2023 0:00,3/7/2024 0:00
NPE-DIDEMO-58,123 Easy St.,Downers Grove,IL,12345,41.9952782,-78.7501093,Electric,WH,W,,,EasternUS,--,EI0335891090,335891090,2.16.840.1.114416.34.335891090,3/7/2024 0:00,EOT
NPE-DIDEMO-60,123 Easy St.,Raleigh,NC,27545,35.9952782,-72.7501093,Electric,WH,W,,,EasternUS,--,1008318557,1008318557,2.16.840.1.114416.34.1008318557,6/7/2024 0:00,EOT
NPE-DIDEMO-62,2111 N Molter Rd,Liberty Lake,WA,99019,47.67604,-117.09043,Electric,WH,W,,1,MountainUS,--,361181239,361181239,2.16.840.1.114416.34.361181239,10/16/2024 0:00,10/21/2024 0:00
NPE-DIDEMO-62,2111 N Molter Rd,Liberty Lake,WA,99019,47.67604,-117.09043,Electric,WH,W,,1,MountainUS,LibertyLake_SampleTx_002,361181239,361181239,2.16.840.1.114416.34.361181239,10/21/2024 0:00,11/21/2024 0:00
NPE-DIDEMO-62,2111 N Molter Rd,Liberty Lake,WA,99019,47.67604,-117.09043,Electric,WH,W,,1,MountainUS,LibertyLake_SampleTx_002,338108480,338108480,2.16.840.1.114416.34.338108480,11/21/2024 0:00,12/21/2024 0:00
NPE-DIDEMO-62,2111 N Molter Rd,Liberty Lake,WA,99019,47.67604,-117.09043,Electric,WH,W,,1,MountainUS,LibertyLake_SampleTx_002,366847475,366847475,2.16.840.1.114416.34.366847475,12/21/2024 0:00,EOT
NPE-DIDEMO-63,2111 N Molter Rd,Liberty Lake,WA,99019,47.6758,117.09028,Electric,WH,W,,1,MountainUS,--,361181236,361181236,2.16.840.1.114416.34.361181236,10/16/2024 0:00,10/21/2024 0:00
NPE-DIDEMO-63,2111 N Molter Rd,Liberty Lake,WA,99019,47.6758,117.09028,Electric,WH,W,,1,MountainUS,LibertyLake_SampleTx_001,361181236,361181236,2.16.840.1.114416.34.361181236,10/21/2024 0:00,11/21/2024 0:00
NPE-DIDEMO-63,2111 N Molter Rd,Liberty Lake,WA,99019,47.6758,117.09028,Electric,WH,W,,1,MountainUS,LibertyLake_SampleTx_001,338108478,338108478,2.16.840.1.114416.34.338108478,11/21/2024 0:00,EOT
NPE-DIDEMO-64,2111 N Molter Rd,Liberty Lake,WA,99019,47.67592,117.09033,Electric,WH,W,,1,MountainUS,--,361181237,361181237,2.16.840.1.114416.34.361181237,10/16/2024 0:00,10/21/2024 0:00
NPE-DIDEMO-64,2111 N Molter Rd,Liberty Lake,WA,99019,47.67592,117.09033,Electric,WH,W,,1,MountainUS,LibertyLake_SampleTx_001,361181237,361181237,2.16.840.1.114416.34.361181237,10/21/2024 0:00,11/21/2024 0:00
NPE-DIDEMO-64,2111 N Molter Rd,Liberty Lake,WA,99019,47.67592,117.09033,Electric,WH,W,,1,MountainUS,LibertyLake_SampleTx_001,346859064,346859064,2.16.840.1.114416.34.346859064,11/21/2024 0:00,EOT
NPE-DIDEMO-65,2111 N Molter Rd,Liberty Lake,WA,99019,47.67505,117.09109,Electric,WH,W,,1,MountainUS,--,362262352,362262352,2.16.840.1.114416.34.362262352,10/15/2024 0:00,10/21/2024 0:00
NPE-DIDEMO-65,2111 N Molter Rd,Liberty Lake,WA,99019,47.67505,117.09109,Electric,WH,W,,1,MountainUS,LibertyLake_SampleTx_002,362262352,362262352,2.16.840.1.114416.34.362262352,10/21/2024 0:00,11/21/2024 0:00
NPE-DIDEMO-65,2111 N Molter Rd,Liberty Lake,WA,99019,47.67505,117.09109,Electric,WH,W,,1,MountainUS,LibertyLake_SampleTx_002,362262356,362262356,2.16.840.1.114416.34.362262356,11/21/2024 0:00,EOT
NPE-DIDEMO-66,2111 N Molter Rd,Liberty Lake,WA,99019,47.67548,117.09009,Electric,WH,W,,1,MountainUS,--,361181232,361181232,2.16.840.1.114416.34.361181232,10/16/2024 0:00,10/21/2024 0:00
NPE-DIDEMO-66,2111 N Molter Rd,Liberty Lake,WA,99019,47.67548,117.09009,Electric,WH,W,,1,MountainUS,LibertyLake_SampleTx_001,361181232,361181232,2.16.840.1.114416.34.361181232,10/21/2024 0:00,11/21/2024 0:00
NPE-DIDEMO-66,2111 N Molter Rd,Liberty Lake,WA,99019,47.67548,117.09009,Electric,WH,W,,1,MountainUS,LibertyLake_SampleTx_001,362262358,362262358,2.16.840.1.114416.34.362262358,11/21/2024 0:00,EOT
NPE-DIDEMO-67,2111 N Molter Rd,Liberty Lake,WA,99019,47.67565,-117.09015,Electric,WH,W,,1,MountainUS,--,361181234,361181234,2.16.840.1.114416.34.361181234,10/16/2024 0:00,10/21/2024 0:00
NPE-DIDEMO-67,2111 N Molter Rd,Liberty Lake,WA,99019,47.67565,-117.09015,Electric,WH,W,,1,MountainUS,LibertyLake_SampleTx_002,361181234,361181234,2.16.840.1.114416.34.361181234,10/21/2024 0:00,11/21/2024 0:00
NPE-DIDEMO-67,2111 N Molter Rd,Liberty Lake,WA,99019,47.67565,-117.09015,Electric,WH,W,,1,MountainUS,LibertyLake_SampleTx_002,346859062,346859062,2.16.840.1.114416.34.346859062,11/21/2024 0:00,EOT
NPE-DIDEMO-68,2111 N Molter Rd,Liberty Lake,WA,99019,47.67548,-117.08944,Electric,,,,1,MountainUS,LibertyLake_SampleTx_002,338108497,338108497,2.16.840.1.114416.34.338108497,11/21/2024 0:00,11/26/2024 0:00
NPE-DIDEMO-68,2111 N Molter Rd,Liberty Lake,WA,99019,47.67548,-117.08944,Electric,WH,W,,1,MountainUS,LibertyLake_SampleTx_002,362262382,362262382,2.16.840.1.114416.34.362262382,11/26/2024 0:00,12/4/2024 0:00
NPE-DIDEMO-68,2111 N Molter Rd,Liberty Lake,WA,99019,47.67548,-117.08944,Electric,WH,W,,1,MountainUS,LibertyLake_SampleTx_002,338108497,338108497,2.16.840.1.114416.34.338108497,12/4/2024 0:00,EOT
NPE-DIDEMO-69,4020 Westchase Blvd.,Raleigh,NC,27607,35.8032313,-78.709709,Electric,WH,W,,,EasternUS,--,362262381,362262381,2.16.840.1.114416.34.362262381,11/26/2024 0:00,EOT
NPE-DIDEMO-70,4020 Westchase Blvd.,Raleigh,NC,27607,35.8032323,-78.709729,Electric,WH,W,,,EasternUS,--,362262363,362262363,2.16.840.1.114416.34.362262363,11/26/2024 0:00,EOT
NPE-DIDEMO-71,4020 Westchase Blvd.,Raleigh,NC,27607,35.8032333,-78.709739,Electric,WH,W,,,EasternUS,--,362262362,362262362,2.16.840.1.114416.34.362262362,11/26/2024 0:00,EOT
NPE-DIDEMO-72,4020 Westchase Blvd.,Raleigh,NC,27607,35.8032343,-78.709749,Electric,WH,W,,,EasternUS,--,362262383,362262383,2.16.840.1.114416.34.362262383,11/26/2024 0:00,EOT
NPE-DIDEMO-73,4020 Westchase Blvd.,Raleigh,NC,27607,35.8032353,-78.709759,Electric,WH,W,,,EasternUS,--,362262361,362262361,2.16.840.1.114416.34.362262361,11/26/2024 0:00,EOT
NPE-DIDEMO-74,4020 Westchase Blvd.,Raleigh,NC,27607,35.8032363,-78.709769,Electric,WH,W,,,EasternUS,--,362262360,362262360,2.16.840.1.114416.34.362262360,11/26/2024 0:00,EOT
NPE-DIDEMO-75,4020 Westchase Blvd,Raleigh,NC,27545,35.8032373,-88.6719,Electric,WH,W,,3,EasternUS,--,362262380,362262380,2.16.840.1.114416.34.362262380,11/26/2024 0:00,2/7/2025 0:00
NPE-DIDEMO-75,4020 Westchase Blvd,Raleigh,NC,27545,35.8032373,-88.6719,Electric,WH,W,,3,EasternUS,Quanta_Tx_D,362262380,362262380,2.16.840.1.114416.34.362262380,2/7/2025 0:00,EOT
NPE-DIDEMO-76,2111 N Molter Rd,Liberty Lake,WA,99019,47.67548,-117.08944,Electric,,,,1,MountainUS,LibertyLake_SampleTx_002,338108497,338108497,2.16.840.1.114416.34.338108497,11/26/2024 0:00,12/4/2024 0:00
NPE-DIDEMO-77,4020 Westchase Blvd.,Raleigh,NC,27607,35.8032391,-78.709797,Electric,WH,W,,,EasternUS,--,362262382,362262382,2.16.840.1.114416.34.362262382,1/14/2025 0:00,EOT
NPE-DIDEMO-78,4020 Westchase Blvd,Raleigh,NC,27545,35.8032396,-78.709794,Electric,WH,W,,1,EasternUS,--,366847546,366847546,2.16.840.1.114416.34.366847546,1/14/2025 0:00,2/7/2025 0:00
NPE-DIDEMO-78,4020 Westchase Blvd,Raleigh,NC,27545,35.8032396,-78.709794,Electric,WH,W,,1,EasternUS,Quanta_Tx_B,366847546,366847546,2.16.840.1.114416.34.366847546,2/7/2025 0:00,EOT
NPE-DIDEMO-79,4020 Westchase Blvd,Raleigh,NC,27545,35.8032391,-78.709799,Electric,WH,W,,1,EasternUS,--,366847542,366847542,2.16.840.1.114416.34.366847542,1/14/2025 0:00,2/7/2025 0:00
NPE-DIDEMO-79,4020 Westchase Blvd,Raleigh,NC,27545,35.8032391,-78.709799,Electric,WH,W,,1,EasternUS,Quanta_Tx_B,366847542,366847542,2.16.840.1.114416.34.366847542,2/7/2025 0:00,EOT
NPE-DIDEMO-80,4020 Westchase Blvd,Raleigh,NC,27545,35.803239,-78.709799,Electric,WH,W,,1,EasternUS,--,366847547,366847547,2.16.840.1.114416.34.366847547,1/14/2025 0:00,2/7/2025 0:00
NPE-DIDEMO-80,4020 Westchase Blvd,Raleigh,NC,27545,35.803239,-78.709799,Electric,WH,W,,1,EasternUS,Quanta_Tx_C,366847547,366847547,2.16.840.1.114416.34.366847547,2/7/2025 0:00,EOT
NPE-DIDEMO-81,4020 Westchase Blvd,Raleigh,NC,27545,35.8032399,-78.70979,Electric,WH,W,,1,EasternUS,--,366847541,366847541,2.16.840.1.114416.34.366847541,1/14/2025 0:00,2/7/2025 0:00
NPE-DIDEMO-81,4020 Westchase Blvd,Raleigh,NC,27545,35.8032399,-78.70979,Electric,WH,W,,1,EasternUS,Quanta_Tx_A,366847541,366847541,2.16.840.1.114416.34.366847541,2/7/2025 0:00,EOT
NPE-DIDEMO-82,4020 Westchase Blvd,Raleigh,NC,27545,35.8032393,-78.709797,Electric,WH,W,,1,EasternUS,--,366847548,366847548,2.16.840.1.114416.34.366847548,1/14/2025 0:00,2/7/2025 0:00
NPE-DIDEMO-82,4020 Westchase Blvd,Raleigh,NC,27545,35.8032393,-78.709797,Electric,WH,W,,1,EasternUS,Quanta_Tx_A,366847548,366847548,2.16.840.1.114416.34.366847548,2/7/2025 0:00,EOT
NPE-DIDEMO-83,4020 Westchase Blvd,Raleigh,NC,27545,35.8032396,-78.709796,Electric,WH,W,,1,EasternUS,--,366847543,366847543,2.16.840.1.114416.34.366847543,1/14/2025 0:00,2/7/2025 0:00
NPE-DIDEMO-83,4020 Westchase Blvd,Raleigh,NC,27545,35.8032396,-78.709796,Electric,WH,W,,1,EasternUS,Quanta_Tx_A,366847543,366847543,2.16.840.1.114416.34.366847543,2/7/2025 0:00,EOT
NPE-DIDEMO-84,4020 Westchase Blvd,Raleigh,NC,27545,35.8032398,-78.709794,Electric,WH,W,,1,EasternUS,--,366847544,366847544,2.16.840.1.114416.34.366847544,1/14/2025 0:00,2/7/2025 0:00
NPE-DIDEMO-84,4020 Westchase Blvd,Raleigh,NC,27545,35.8032398,-78.709794,Electric,WH,W,,1,EasternUS,Quanta_Tx_A,366847544,366847544,2.16.840.1.114416.34.366847544,2/7/2025 0:00,EOT
NPE-DIDEMO-85,4020 Westchase Blvd,Raleigh,NC,27545,35.8032393,-78.709793,Electric,WH,W,,1,EasternUS,--,366847545,366847545,2.16.840.1.114416.34.366847545,1/14/2025 0:00,2/7/2025 0:00
NPE-DIDEMO-85,4020 Westchase Blvd,Raleigh,NC,27545,35.8032393,-78.709793,Electric,WH,W,,1,EasternUS,Quanta_Tx_C,366847545,366847545,2.16.840.1.114416.34.366847545,2/7/2025 0:00,EOT
Outage Demo Device,8529 Six Forks Rd,Raleigh,NC,27615,35.895344,-78.650096,Electric,WH,W,,1,EasternUS,RaleighTSELab_OutageDemo,EI0340771541,340771541,2.16.840.1.114416.34.340771541,BOT,EOT
RAL343359869,8529 Six Forks Rd,Raleigh,NC,27615,35.8953441,-78.6500961,Electric,WH,W,,,EasternUS,--,EI0343359869,343359869,2.16.840.1.114416.34.343359869,BOT,EOT
TSE101,8529 Six Forks Rd,Raleigh,NC,27615,35.8953441,-78.6500961,Electric,WH,W,,,CentralUS,--,EI0340750896,340750896,2.16.840.1.114416.34.340750896,BOT,EOT
